,address,decade,location,point,latitude,longitude,altitude
1,"West 44th street,New York,NY,United States",1850,"West 44th Street, Times Square, Manhattan, New York County, New York, 10036, United States","(40.7585323, -73.9888429, 0.0)",40.7585323,-73.9888429,0.0
2,"Union Square,New York,NY,United States",1870,"Union Square, Manhattan, New York County, New York, United States","(40.7359091, -73.9901626, 0.0)",40.7359091,-73.9901626,0.0
3,"East 80th street,New York,NY,United States",1870,"East 80th Street, Paerdegat, Brooklyn, Kings County, New York, 11236, United States","(40.633857, -73.911437, 0.0)",40.633857,-73.911437,0.0
4,"Broadway,New York,NY,United States",1840,"Broadway, NoMad, Manhattan, New York County, New York, 10019, United States","(40.7461241, -73.9885976, 0.0)",40.7461241,-73.9885976,0.0
5,"2nd ave,New York,NY,United States",1840,"2nd Avenue, Manhattan Community Board 11, Manhattan, New York County, New York, 10035, United States","(40.800412, -73.93529, 0.0)",40.800412,-73.93529,0.0
6,"Broome street,New York,NY,United States",1860,"Broome Street, Lower East Side, Manhattan, New York County, New York, 10002, United States","(40.7176888, -73.9887992, 0.0)",40.7176888,-73.9887992,0.0
7,"Halsey st,Brooklyn,NY,United States",1860,"Halsey Street, Broadway, Brooklyn, Kings County, New York, 11207, United States","(40.6859193, -73.915852, 0.0)",40.6859193,-73.915852,0.0
9,"West 124th st,New York,NY,United States",1860,"West 124th Street, Harlem, Manhattan Community Board 10, Manhattan, New York County, New York, 10027, United States","(40.8070675, -73.9459054, 0.0)",40.8070675,-73.9459054,0.0
10,nan,1870,"Nanno, Ville d'Anaunia, Comunità della Val di Non, Provincia di Trento, Trentino-Alto Adige/Südtirol, 38012, Italia","(46.3144754, 11.0480288, 0.0)",46.3144754,11.0480288,0.0
11,"East 60th street,New York,NY,United States",1870,"East 60th Street, Lenox Hill, Manhattan, New York County, New York, 10022, United States","(40.7603139, -73.9616496, 0.0)",40.7603139,-73.9616496,0.0
12,nan,1870,"Nanno, Ville d'Anaunia, Comunità della Val di Non, Provincia di Trento, Trentino-Alto Adige/Südtirol, 38012, Italia","(46.3144754, 11.0480288, 0.0)",46.3144754,11.0480288,0.0
13,nan,1870,"Nanno, Ville d'Anaunia, Comunità della Val di Non, Provincia di Trento, Trentino-Alto Adige/Südtirol, 38012, Italia","(46.3144754, 11.0480288, 0.0)",46.3144754,11.0480288,0.0
14,"West 45th street,New York,NY,United States",1850,"West 45th Street, Hell's Kitchen, Manhattan, New York County, New York, 10036, United States","(40.7627398, -73.99689, 0.0)",40.7627398,-73.99689,0.0
15,nan,1850,"Nanno, Ville d'Anaunia, Comunità della Val di Non, Provincia di Trento, Trentino-Alto Adige/Südtirol, 38012, Italia","(46.3144754, 11.0480288, 0.0)",46.3144754,11.0480288,0.0
16,"William street,New York,NY,United States",1840,"William Street, Financial District, Manhattan, New York County, New York, 10038, United States","(40.7103582, -74.0056377, 0.0)",40.7103582,-74.0056377,0.0
17,"Reade street,New York,NY,United States",1860,"Reade Street, Tribeca, Manhattan, New York County, New York, 10013, United States","(40.7168396, -74.0106185, 0.0)",40.7168396,-74.0106185,0.0
18,nan,1860,"Nanno, Ville d'Anaunia, Comunità della Val di Non, Provincia di Trento, Trentino-Alto Adige/Südtirol, 38012, Italia","(46.3144754, 11.0480288, 0.0)",46.3144754,11.0480288,0.0
19,"Congress,Brooklyn,NY,United States",1860,"Congress, 208, Court Street, Cobble Hill Historic District, Brooklyn, Kings County, New York, 11201, United States","(40.6869283, -73.9938592, 0.0)",40.6869283,-73.9938592,0.0
20,"East 44th street,New York,NY,United States",1840,"East 44th Street, Midtown East, Manhattan, New York County, New York, 10017, United States","(40.7541522, -73.9784549, 0.0)",40.7541522,-73.9784549,0.0
22,"Broadway,New York,NY,United States",1850,"Broadway, NoMad, Manhattan, New York County, New York, 10019, United States","(40.7461241, -73.9885976, 0.0)",40.7461241,-73.9885976,0.0
24,nan,1840,"Nanno, Ville d'Anaunia, Comunità della Val di Non, Provincia di Trento, Trentino-Alto Adige/Südtirol, 38012, Italia","(46.3144754, 11.0480288, 0.0)",46.3144754,11.0480288,0.0
25,"Broadway,New York,NY,United States",1850,"Broadway, NoMad, Manhattan, New York County, New York, 10019, United States","(40.7461241, -73.9885976, 0.0)",40.7461241,-73.9885976,0.0
26,"Madison ave,New York,NY,United States",1850,"Madison Avenue, Upper East Side, Manhattan, New York County, New York, 10037, United States","(40.7776964, -73.9611218, 0.0)",40.7776964,-73.9611218,0.0
27,"West 14th street,New York,NY,United States",1840,"West 14th Street, West Village, Manhattan, New York County, New York, 10011, United States","(40.7386055, -73.99981, 0.0)",40.7386055,-73.99981,0.0
28,"West 11th street,New York,NY,United States",1840,"West 11th Street, Greenwich Village, West Village, Manhattan, New York County, New York, 10014, United States","(40.7353381, -73.9981478, 0.0)",40.7353381,-73.9981478,0.0
29,"East 61st street,New York,NY,United States",1860,"East 61st Street, Lenox Hill, Manhattan, New York County, New York, 10021, United States","(40.7614854, -73.9625282, 0.0)",40.7614854,-73.9625282,0.0
30,"Clinton Market,New York,NY,United States",1860,"Clinton Gourmet Market, 9th Avenue, Hell's Kitchen, Manhattan, New York County, New York, 10036, United States","(40.7605536, -73.9908018, 0.0)",40.7605536,-73.9908018,0.0
31,"Broadway,New York,NY,United States",1840,"Broadway, NoMad, Manhattan, New York County, New York, 10019, United States","(40.7461241, -73.9885976, 0.0)",40.7461241,-73.9885976,0.0
32,"East 48th street,New York,NY,United States",1860,"East 48th Street, Flatlands, Brooklyn, Kings County, New York, 11234, United States","(40.6151587, -73.9284485, 0.0)",40.6151587,-73.9284485,0.0
33,"East 10th street,New York,NY,United States",1850,"East 10th Street, Brooklyn, Kings County, New York, 11223, United States","(40.627044, -73.966623, 0.0)",40.627044,-73.966623,0.0
34,nan,1870,"Nanno, Ville d'Anaunia, Comunità della Val di Non, Provincia di Trento, Trentino-Alto Adige/Südtirol, 38012, Italia","(46.3144754, 11.0480288, 0.0)",46.3144754,11.0480288,0.0
35,"West 4th street,New York,NY,United States",1870,"West 4th Street, West Village, Manhattan, New York County, New York, 10014, United States","(40.7362021, -74.0035332, 0.0)",40.7362021,-74.0035332,0.0
36,nan,1840,"Nanno, Ville d'Anaunia, Comunità della Val di Non, Provincia di Trento, Trentino-Alto Adige/Südtirol, 38012, Italia","(46.3144754, 11.0480288, 0.0)",46.3144754,11.0480288,0.0
37,"Chambers street,New York,NY,United States",1860,"Chambers Street, Lower Manhattan, Civic Center, Manhattan, New York County, New York, 10000, United States","(40.7139194, -74.0057551, 0.0)",40.7139194,-74.0057551,0.0
38,"Water street,New York,NY,United States",1850,"Water Street, Downtown Jamestown, Jamestown, Chautauqua County, New York, 14701, United States","(42.093105, -79.2296, 0.0)",42.093105,-79.2296,0.0
39,nan,1840,"Nanno, Ville d'Anaunia, Comunità della Val di Non, Provincia di Trento, Trentino-Alto Adige/Südtirol, 38012, Italia","(46.3144754, 11.0480288, 0.0)",46.3144754,11.0480288,0.0
40,nan,1840,"Nanno, Ville d'Anaunia, Comunità della Val di Non, Provincia di Trento, Trentino-Alto Adige/Südtirol, 38012, Italia","(46.3144754, 11.0480288, 0.0)",46.3144754,11.0480288,0.0
41,nan,1850,"Nanno, Ville d'Anaunia, Comunità della Val di Non, Provincia di Trento, Trentino-Alto Adige/Südtirol, 38012, Italia","(46.3144754, 11.0480288, 0.0)",46.3144754,11.0480288,0.0
42,nan,1840,"Nanno, Ville d'Anaunia, Comunità della Val di Non, Provincia di Trento, Trentino-Alto Adige/Südtirol, 38012, Italia","(46.3144754, 11.0480288, 0.0)",46.3144754,11.0480288,0.0
43,"Broome street,New York,NY,United States",1830,"Broome Street, Lower East Side, Manhattan, New York County, New York, 10002, United States","(40.7176888, -73.9887992, 0.0)",40.7176888,-73.9887992,0.0
44,nan,1870,"Nanno, Ville d'Anaunia, Comunità della Val di Non, Provincia di Trento, Trentino-Alto Adige/Südtirol, 38012, Italia","(46.3144754, 11.0480288, 0.0)",46.3144754,11.0480288,0.0
45,nan,1870,"Nanno, Ville d'Anaunia, Comunità della Val di Non, Provincia di Trento, Trentino-Alto Adige/Südtirol, 38012, Italia","(46.3144754, 11.0480288, 0.0)",46.3144754,11.0480288,0.0
46,nan,1870,"Nanno, Ville d'Anaunia, Comunità della Val di Non, Provincia di Trento, Trentino-Alto Adige/Südtirol, 38012, Italia","(46.3144754, 11.0480288, 0.0)",46.3144754,11.0480288,0.0
47,"East 34th street,New York,NY,United States",1850,"East 34th Street, Manhattan Community Board 6, Manhattan, New York County, New York, 10016, United States","(40.7445155, -73.9752881, 0.0)",40.7445155,-73.9752881,0.0
48,nan,1870,"Nanno, Ville d'Anaunia, Comunità della Val di Non, Provincia di Trento, Trentino-Alto Adige/Südtirol, 38012, Italia","(46.3144754, 11.0480288, 0.0)",46.3144754,11.0480288,0.0
49,"Cortlandt street,New York,NY,United States",1860,"Cortlandt Street, Church Street, Financial District, Manhattan, New York County, New York, 10013, United States","(40.710668, -74.0110289, 0.0)",40.710668,-74.0110289,0.0
50,"Liberty street,New York,NY,United States",1830,"Liberty Street, Battery Park City, Financial District, Manhattan, New York County, New York, 10005, United States","(40.7110691, -74.0145067, 0.0)",40.7110691,-74.0145067,0.0
51,nan,1860,"Nanno, Ville d'Anaunia, Comunità della Val di Non, Provincia di Trento, Trentino-Alto Adige/Südtirol, 38012, Italia","(46.3144754, 11.0480288, 0.0)",46.3144754,11.0480288,0.0
52,"Duane street,New York,NY,United States",1870,"Duane Street, Poughkeepsie, Dutchess County, New York, 12601, United States","(41.7097198, -73.9341256, 0.0)",41.7097198,-73.9341256,0.0
54,nan,1850,"Nanno, Ville d'Anaunia, Comunità della Val di Non, Provincia di Trento, Trentino-Alto Adige/Südtirol, 38012, Italia","(46.3144754, 11.0480288, 0.0)",46.3144754,11.0480288,0.0
55,"Hempstead,Long Island,NY,United States",1860,"Island Park Post Office, 367, Long Beach Road, Island Park, Town of Hempstead, Nassau County, New York, 11558, United States","(40.6033291, -73.655858, 0.0)",40.6033291,-73.655858,0.0
56,"West 130th street,New York,NY,United States",1860,"West 130th Street, Manhattan Community Board 9, Manhattan, New York County, New York, 10027, United States","(40.8175078, -73.9587528, 0.0)",40.8175078,-73.9587528,0.0
57,"West 28th street,New York,NY,United States",1840,"West 28th Street, Coney Island, Brooklyn, Kings County, New York, 11224, United States","(40.5720188, -73.993632, 0.0)",40.5720188,-73.993632,0.0
58,nan,1850,"Nanno, Ville d'Anaunia, Comunità della Val di Non, Provincia di Trento, Trentino-Alto Adige/Südtirol, 38012, Italia","(46.3144754, 11.0480288, 0.0)",46.3144754,11.0480288,0.0
59,"East 41st street,New York,NY,United States",1860,"East 41st Street, Tudor City, Manhattan Community Board 6, Manhattan, New York County, New York, 10017, United States","(40.7484063, -73.9709149, 0.0)",40.7484063,-73.9709149,0.0
60,"Vesey street,New York,NY,United States",1860,"Vesey Street, Battery Park City, Manhattan Community Board 1, Manhattan, New York County, New York, 10281, United States","(40.7137964, -74.0139365, 0.0)",40.7137964,-74.0139365,0.0
61,"West 23rd street,New York,NY,United States",1870,"West 23rd Street, Chelsea District, Manhattan, New York County, New York, 10011, United States","(40.7442808, -73.9960773, 0.0)",40.7442808,-73.9960773,0.0
62,"Broadway,New York,NY,United States",1840,"Broadway, NoMad, Manhattan, New York County, New York, 10019, United States","(40.7461241, -73.9885976, 0.0)",40.7461241,-73.9885976,0.0
63,"East 54th street,New York,NY,United States",1850,"East 54th Street, Midtown East, Manhattan, New York County, New York, 10022, United States","(40.7573379, -73.9665997, 0.0)",40.7573379,-73.9665997,0.0
64,"West 12 st.,New York,NY,United States",1860,"West 12 Street, West Village, Manhattan, New York County, New York, 100014, United States","(40.7374842, -74.0100279, 0.0)",40.7374842,-74.0100279,0.0
65,"East 79th st.,New York ,NY,United States",1860,"East 79th Street, Manhattan Community Board 8, Manhattan, New York County, New York, 10021, United States","(40.7703634, -73.9479142, 0.0)",40.7703634,-73.9479142,0.0
66,nan,1860,"Nanno, Ville d'Anaunia, Comunità della Val di Non, Provincia di Trento, Trentino-Alto Adige/Südtirol, 38012, Italia","(46.3144754, 11.0480288, 0.0)",46.3144754,11.0480288,0.0
67,"Pacific st.,Brooklyn,NY,United States",1840,"Pacific Street, Bedford-Stuyvesant, Brooklyn, Kings County, New York, 11233, United States","(40.676895, -73.935923, 0.0)",40.676895,-73.935923,0.0
68,"111th st.& 1st ave.,New York,NY,United States",1860,"1st Avenue & East 111th Street, 1st Avenue, Manhattan Community Board 11, Manhattan, New York County, New York, 10035, United States","(40.7929705, -73.9375275, 0.0)",40.7929705,-73.9375275,0.0
69,"East 34th street,New York,NY,United States",1870,"East 34th Street, Manhattan Community Board 6, Manhattan, New York County, New York, 10016, United States","(40.7445155, -73.9752881, 0.0)",40.7445155,-73.9752881,0.0
70,"Wall street,New York,NY,United States",1840,"Wall Street, Financial District, Manhattan, New York County, New York, 10005, United States","(40.7060194, -74.0088308, 0.0)",40.7060194,-74.0088308,0.0
71,"Liberty street,New York,NY,United States",1860,"Liberty Street, Battery Park City, Financial District, Manhattan, New York County, New York, 10005, United States","(40.7110691, -74.0145067, 0.0)",40.7110691,-74.0145067,0.0
74,"Broadway,New York,NY,United States",1850,"Broadway, NoMad, Manhattan, New York County, New York, 10019, United States","(40.7461241, -73.9885976, 0.0)",40.7461241,-73.9885976,0.0
75,nan,1860,"Nanno, Ville d'Anaunia, Comunità della Val di Non, Provincia di Trento, Trentino-Alto Adige/Südtirol, 38012, Italia","(46.3144754, 11.0480288, 0.0)",46.3144754,11.0480288,0.0
77,"Hudson st. ,New York,Ny,United States",1860,"Hudson Street, Tribeca, Manhattan, New York County, New York, 10014, United States","(40.7198958, -74.0085939, 0.0)",40.7198958,-74.0085939,0.0
78,"Broadway,New York,NY,United States",1850,"Broadway, NoMad, Manhattan, New York County, New York, 10019, United States","(40.7461241, -73.9885976, 0.0)",40.7461241,-73.9885976,0.0
80,nan,1850,"Nanno, Ville d'Anaunia, Comunità della Val di Non, Provincia di Trento, Trentino-Alto Adige/Südtirol, 38012, Italia","(46.3144754, 11.0480288, 0.0)",46.3144754,11.0480288,0.0
81,nan,1850,"Nanno, Ville d'Anaunia, Comunità della Val di Non, Provincia di Trento, Trentino-Alto Adige/Südtirol, 38012, Italia","(46.3144754, 11.0480288, 0.0)",46.3144754,11.0480288,0.0
82,nan,1870,"Nanno, Ville d'Anaunia, Comunità della Val di Non, Provincia di Trento, Trentino-Alto Adige/Südtirol, 38012, Italia","(46.3144754, 11.0480288, 0.0)",46.3144754,11.0480288,0.0
83,"Perry street,New York,NY,United States",1870,"Perry Street, Saratoga Springs, City of Saratoga Springs, Saratoga County, New York, 12833:12866, United States","(43.074099, -73.791008, 0.0)",43.074099,-73.791008,0.0
84,"East 75th street,New York,NY,United States",1850,"East 75th Street, Manhattan Community Board 8, Manhattan, New York County, New York, 10021, United States","(40.7708183, -73.9570675, 0.0)",40.7708183,-73.9570675,0.0
85,"Broadway,New York,NY,United States",1860,"Broadway, NoMad, Manhattan, New York County, New York, 10019, United States","(40.7461241, -73.9885976, 0.0)",40.7461241,-73.9885976,0.0
86,nan,1860,"Nanno, Ville d'Anaunia, Comunità della Val di Non, Provincia di Trento, Trentino-Alto Adige/Südtirol, 38012, Italia","(46.3144754, 11.0480288, 0.0)",46.3144754,11.0480288,0.0
87,"Hudson st. ,New York,NY,United States",1860,"Hudson Street, Tribeca, Manhattan, New York County, New York, 10014, United States","(40.7198958, -74.0085939, 0.0)",40.7198958,-74.0085939,0.0
88,nan,1840,"Nanno, Ville d'Anaunia, Comunità della Val di Non, Provincia di Trento, Trentino-Alto Adige/Südtirol, 38012, Italia","(46.3144754, 11.0480288, 0.0)",46.3144754,11.0480288,0.0
89,"East 127th st.,New York,NY,United States",1860,"East 127th Street, Manhattan Community Board 11, Manhattan, New York County, New York, 10035, United States","(40.8047612, -73.9342957, 0.0)",40.8047612,-73.9342957,0.0
90,"East 69th street,New York,NY,United States",1870,"East 69th Street, Lenox Hill, Manhattan, New York County, New York, 10021, United States","(40.7658106, -73.9572775, 0.0)",40.7658106,-73.9572775,0.0
91,nan,1860,"Nanno, Ville d'Anaunia, Comunità della Val di Non, Provincia di Trento, Trentino-Alto Adige/Südtirol, 38012, Italia","(46.3144754, 11.0480288, 0.0)",46.3144754,11.0480288,0.0
92,nan,1860,"Nanno, Ville d'Anaunia, Comunità della Val di Non, Provincia di Trento, Trentino-Alto Adige/Südtirol, 38012, Italia","(46.3144754, 11.0480288, 0.0)",46.3144754,11.0480288,0.0
93,"Broadway,New York,NY,United States",1850,"Broadway, NoMad, Manhattan, New York County, New York, 10019, United States","(40.7461241, -73.9885976, 0.0)",40.7461241,-73.9885976,0.0
94,"Columbia,Brooklyn,NY,United States",1850,"Columbia Street Waterfront District, Brooklyn, Kings County, New York, 11231, United States","(40.6872869, -74.0019197, 0.0)",40.6872869,-74.0019197,0.0
95,nan,1870,"Nanno, Ville d'Anaunia, Comunità della Val di Non, Provincia di Trento, Trentino-Alto Adige/Südtirol, 38012, Italia","(46.3144754, 11.0480288, 0.0)",46.3144754,11.0480288,0.0
96,"Lexington ave.,New York,NY,United States",1850,"Lexington Avenue, Midtown East, Manhattan, New York County, New York, 10037, United States","(40.753367, -73.974648, 0.0)",40.753367,-73.974648,0.0
97,nan,1850,"Nanno, Ville d'Anaunia, Comunità della Val di Non, Provincia di Trento, Trentino-Alto Adige/Südtirol, 38012, Italia","(46.3144754, 11.0480288, 0.0)",46.3144754,11.0480288,0.0
98,nan,1860,"Nanno, Ville d'Anaunia, Comunità della Val di Non, Provincia di Trento, Trentino-Alto Adige/Südtirol, 38012, Italia","(46.3144754, 11.0480288, 0.0)",46.3144754,11.0480288,0.0
99,"E 119th street,New York,NY,United States",1870,"East 119th Street, Manhattan Community Board 11, Manhattan, New York County, New York, 10035, United States","(40.7965371, -73.9306656, 0.0)",40.7965371,-73.9306656,0.0
100,"Carlton,Brooklyn,NY,United States",1850,"Carlton Avenue, Prospect Heights, Brooklyn, Kings County, New York, 11227, United States","(40.681619, -73.9708473, 0.0)",40.681619,-73.9708473,0.0
101,"Wall street,New York,NY,United States",1840,"Wall Street, Financial District, Manhattan, New York County, New York, 10005, United States","(40.7060194, -74.0088308, 0.0)",40.7060194,-74.0088308,0.0
102,nan,1840,"Nanno, Ville d'Anaunia, Comunità della Val di Non, Provincia di Trento, Trentino-Alto Adige/Südtirol, 38012, Italia","(46.3144754, 11.0480288, 0.0)",46.3144754,11.0480288,0.0
103,nan,1850,"Nanno, Ville d'Anaunia, Comunità della Val di Non, Provincia di Trento, Trentino-Alto Adige/Südtirol, 38012, Italia","(46.3144754, 11.0480288, 0.0)",46.3144754,11.0480288,0.0
104,"Broadway,New York,NY,United States",1860,"Broadway, NoMad, Manhattan, New York County, New York, 10019, United States","(40.7461241, -73.9885976, 0.0)",40.7461241,-73.9885976,0.0
105,nan,1850,"Nanno, Ville d'Anaunia, Comunità della Val di Non, Provincia di Trento, Trentino-Alto Adige/Südtirol, 38012, Italia","(46.3144754, 11.0480288, 0.0)",46.3144754,11.0480288,0.0
106,nan,1860,"Nanno, Ville d'Anaunia, Comunità della Val di Non, Provincia di Trento, Trentino-Alto Adige/Südtirol, 38012, Italia","(46.3144754, 11.0480288, 0.0)",46.3144754,11.0480288,0.0
107,"Broadway,New York,NY,United States",1830,"Broadway, NoMad, Manhattan, New York County, New York, 10019, United States","(40.7461241, -73.9885976, 0.0)",40.7461241,-73.9885976,0.0
108,nan,1850,"Nanno, Ville d'Anaunia, Comunità della Val di Non, Provincia di Trento, Trentino-Alto Adige/Südtirol, 38012, Italia","(46.3144754, 11.0480288, 0.0)",46.3144754,11.0480288,0.0
109,nan,1840,"Nanno, Ville d'Anaunia, Comunità della Val di Non, Provincia di Trento, Trentino-Alto Adige/Südtirol, 38012, Italia","(46.3144754, 11.0480288, 0.0)",46.3144754,11.0480288,0.0
112,"Broadway,New York,NY,United States",1850,"Broadway, NoMad, Manhattan, New York County, New York, 10019, United States","(40.7461241, -73.9885976, 0.0)",40.7461241,-73.9885976,0.0
113,"3rd Avenue,New York,NY,United States",1840,"3rd Avenue, Kips Bay, Manhattan, New York County, New York, 10035, United States","(40.7395663, -73.9826103, 0.0)",40.7395663,-73.9826103,0.0
114,"West 12th street,New York,NY,United States",1860,"West 12th Street, West Village, Manhattan, New York County, New York, 10014, United States","(40.7376112, -74.0015555, 0.0)",40.7376112,-74.0015555,0.0
115,"East 128th st.,New York,NY,United States",1870,"East 128th Street, Manhattan Community Board 11, Manhattan, New York County, New York, 10035-3501, United States","(40.8051562, -73.9332256, 0.0)",40.8051562,-73.9332256,0.0
116,"East 79th st.,New York,NY,United States",1850,"East 79th Street, Manhattan Community Board 8, Manhattan, New York County, New York, 10021, United States","(40.7703634, -73.9479142, 0.0)",40.7703634,-73.9479142,0.0
117,"West 33rd st. ,New York,NY,United States",1860,"West 33rd Street, Coney Island, Brooklyn, Kings County, New York, 11224, United States","(40.5763896, -73.9998726, 0.0)",40.5763896,-73.9998726,0.0
118,"Broadway,New York,NY,United States",1870,"Broadway, NoMad, Manhattan, New York County, New York, 10019, United States","(40.7461241, -73.9885976, 0.0)",40.7461241,-73.9885976,0.0
119,"South 5th ave.,New York,NY,United States",1830,"South 5th Avenue, Mount Vernon, Westchester County, New York, 10550, United States","(40.9115056, -73.8380526, 0.0)",40.9115056,-73.8380526,0.0
120,"West 28th st.,New York,NY,United States",1860,"West 28th Street, Coney Island, Brooklyn, Kings County, New York, 11224, United States","(40.5720188, -73.993632, 0.0)",40.5720188,-73.993632,0.0
121,"East 112th st.,New York,NY,United States",1860,"East 112th Street, East Harlem, Manhattan, New York County, New York, 10029, United States","(40.7960504, -73.9433975, 0.0)",40.7960504,-73.9433975,0.0
122,"2d avenue,New York,NY,United States",1860,"2D, Porter Avenue, Fort Niagara Beach, Porter, Niagara County, New York, 14174, United States","(43.2613878, -79.0529957, 0.0)",43.2613878,-79.0529957,0.0
123,nan,1860,"Nanno, Ville d'Anaunia, Comunità della Val di Non, Provincia di Trento, Trentino-Alto Adige/Südtirol, 38012, Italia","(46.3144754, 11.0480288, 0.0)",46.3144754,11.0480288,0.0
124,"Reade street,New York,NY ,United States",1860,"Reade Street, Tribeca, Manhattan, New York County, New York, 10013, United States","(40.7168396, -74.0106185, 0.0)",40.7168396,-74.0106185,0.0
125,"West 18th st.,New York,NY,United States",1860,"West 18th Street, Chelsea, Manhattan, New York County, New York, 10011, United States","(40.7409971, -73.9977219, 0.0)",40.7409971,-73.9977219,0.0
126,"Rose street,New York,NY,United States",1860,"Rose Street, Town of Oyster Bay, Nassau County, New York, 11714, United States","(40.731727, -73.484715, 0.0)",40.731727,-73.484715,0.0
127,"6th avenue,New York,NY,United States",1850,"6th Avenue, Hudson Square, Manhattan, New York County, New York, 10019, United States","(40.7248717, -74.0042981, 0.0)",40.7248717,-74.0042981,0.0
128,nan,1870,"Nanno, Ville d'Anaunia, Comunità della Val di Non, Provincia di Trento, Trentino-Alto Adige/Südtirol, 38012, Italia","(46.3144754, 11.0480288, 0.0)",46.3144754,11.0480288,0.0
129,"Worth street ,New York,NY,United States",1860,"Worth Street, Lower Manhattan, Civic Center, Manhattan, New York County, New York, 10013, United States","(40.7155396, -74.0028884, 0.0)",40.7155396,-74.0028884,0.0
130,"West 36th street,New York,NY,United States",1860,"West 36th Street, Coney Island, Brooklyn, Kings County, New York, 11224, United States","(40.5724847, -74.0013023, 0.0)",40.5724847,-74.0013023,0.0
131,nan,1840,"Nanno, Ville d'Anaunia, Comunità della Val di Non, Provincia di Trento, Trentino-Alto Adige/Südtirol, 38012, Italia","(46.3144754, 11.0480288, 0.0)",46.3144754,11.0480288,0.0
132,"Irving place,New York,NY,United States",1850,"Irving Place, Village of Menands, Town of Colonie, Albany County, New York, 12204, United States","(42.6913745, -73.7244006, 0.0)",42.6913745,-73.7244006,0.0
133,"East 18th street,New York,NY,United States",1860,"East 18th Street, Sheepshead Bay, Brooklyn, Kings County, New York, 11235, United States","(40.597028, -73.95315, 0.0)",40.597028,-73.95315,0.0
134,"West 19th st. ,New York,NY,United States",1850,"West 19th Street, Chelsea, Manhattan, New York County, New York, 10011, United States","(40.7460345, -74.0078863, 0.0)",40.7460345,-74.0078863,0.0
135,"West 44th street,New York,NY,United States",1870,"West 44th Street, Times Square, Manhattan, New York County, New York, 10036, United States","(40.7585323, -73.9888429, 0.0)",40.7585323,-73.9888429,0.0
136,"East 56th st. ,New York,NY,United States",1870,"East 56th Street, Paerdegat, Brooklyn, Kings County, New York, 11234, United States","(40.6378629, -73.9230511, 0.0)",40.6378629,-73.9230511,0.0
137,nan,1860,"Nanno, Ville d'Anaunia, Comunità della Val di Non, Provincia di Trento, Trentino-Alto Adige/Südtirol, 38012, Italia","(46.3144754, 11.0480288, 0.0)",46.3144754,11.0480288,0.0
138,"Nassau street,New York,NY,United States",1860,"Nassau Street, Financial District, Manhattan, New York County, New York, 10038, United States","(40.7116446, -74.0059076, 0.0)",40.7116446,-74.0059076,0.0
139,"East 57th street,New York ,NY,United States",1870,"East 57th Street, Midtown East, Manhattan, New York County, New York, 10022, United States","(40.7583569, -73.9630276, 0.0)",40.7583569,-73.9630276,0.0
140,"Hudson street,New York,NY,United States",1860,"Hudson Street, Tribeca, Manhattan, New York County, New York, 10014, United States","(40.7198958, -74.0085939, 0.0)",40.7198958,-74.0085939,0.0
141,"East 57th street,New York,NY,United States",1860,"East 57th Street, Midtown East, Manhattan, New York County, New York, 10022, United States","(40.7583569, -73.9630276, 0.0)",40.7583569,-73.9630276,0.0
142,nan,1860,"Nanno, Ville d'Anaunia, Comunità della Val di Non, Provincia di Trento, Trentino-Alto Adige/Südtirol, 38012, Italia","(46.3144754, 11.0480288, 0.0)",46.3144754,11.0480288,0.0
143,"Barclay street,New York,NY,United States",1860,"Barclay Street, Saugerties, Town of Saugerties, Ulster County, New York, 12477, United States","(42.066649, -73.945426, 0.0)",42.066649,-73.945426,0.0
144,"East 10th street,New York,NY,United States",1870,"East 10th Street, Brooklyn, Kings County, New York, 11223, United States","(40.627044, -73.966623, 0.0)",40.627044,-73.966623,0.0
146,"West 45th street,New York,NY,United States",1850,"West 45th Street, Hell's Kitchen, Manhattan, New York County, New York, 10036, United States","(40.7627398, -73.99689, 0.0)",40.7627398,-73.99689,0.0
147,nan,1840,"Nanno, Ville d'Anaunia, Comunità della Val di Non, Provincia di Trento, Trentino-Alto Adige/Südtirol, 38012, Italia","(46.3144754, 11.0480288, 0.0)",46.3144754,11.0480288,0.0
148,nan,1870,"Nanno, Ville d'Anaunia, Comunità della Val di Non, Provincia di Trento, Trentino-Alto Adige/Südtirol, 38012, Italia","(46.3144754, 11.0480288, 0.0)",46.3144754,11.0480288,0.0
149,"West 29th st. ,New York,NY,United States",1860,"West 29th Street, NoMad, Manhattan, New York County, New York, 10001, United States","(40.7459949, -73.9884922, 0.0)",40.7459949,-73.9884922,0.0
150,"East 20th street,New York,NY,United States",1870,"East 20th Street, Flatiron District, Manhattan, New York County, New York, 10003, United States","(40.7382917, -73.9876671, 0.0)",40.7382917,-73.9876671,0.0
151,"West 39th street,New York,NY,United States",1870,"West 39th Street, Hudson Yards, Manhattan, New York County, New York, 10018, United States","(40.7583743, -73.9983941, 0.0)",40.7583743,-73.9983941,0.0
152,"West 56th street,New York,NY,United States",1870,"West 56th Street, Hell's Kitchen, Manhattan, New York County, New York, 10019, United States","(40.7705856, -73.9941223, 0.0)",40.7705856,-73.9941223,0.0
153,"Worth street ,New York,NY,United States",1870,"Worth Street, Lower Manhattan, Civic Center, Manhattan, New York County, New York, 10013, United States","(40.7155396, -74.0028884, 0.0)",40.7155396,-74.0028884,0.0
154,"West street,New York,NY,United States",1840,"West Street, Whitehall, Town of Whitehall, Washington County, New York, 12887, United States","(43.551209, -73.405658, 0.0)",43.551209,-73.405658,0.0
155,"Mercer street,New York,NY,United States",1870,"Mercer Street, Greenwich Village, Manhattan Community Board 2, Manhattan, New York County, New York, 10012, United States","(40.7282565, -73.9955393, 0.0)",40.7282565,-73.9955393,0.0
156,"West 49th street,New York,NY,United States",1860,"West 49th Street, Hell's Kitchen, Manhattan, New York County, New York, 10019, United States","(40.7628617, -73.9894017, 0.0)",40.7628617,-73.9894017,0.0
157,"West 44th street,New York,NY,United States",1850,"West 44th Street, Times Square, Manhattan, New York County, New York, 10036, United States","(40.7585323, -73.9888429, 0.0)",40.7585323,-73.9888429,0.0
158,"Broadway,New York,NY,United States",1850,"Broadway, NoMad, Manhattan, New York County, New York, 10019, United States","(40.7461241, -73.9885976, 0.0)",40.7461241,-73.9885976,0.0
160,"Franklin street,New York,NY,United States",1840,"Franklin Street, Massapequa, Massapequa Park, Town of Oyster Bay, Nassau County, New York, 11758, United States","(40.6796975, -73.4698954, 0.0)",40.6796975,-73.4698954,0.0
161,"Fulton street,New York ,NY,United States",1870,"Fulton Street, Manhattan Community Board 1, Manhattan, New York County, New York, 10038, United States","(40.7101857, -74.0076638, 0.0)",40.7101857,-74.0076638,0.0
162,"East 37th street,New York,NY,United States",1870,"East 37th Street, Flatlands, Brooklyn, Kings County, New York, 11210, United States","(40.6275256, -73.9403025, 0.0)",40.6275256,-73.9403025,0.0
163,"West 29th street,New York,NY,United States",1860,"West 29th Street, NoMad, Manhattan, New York County, New York, 10001, United States","(40.7459949, -73.9884922, 0.0)",40.7459949,-73.9884922,0.0
164,"Astoria,Long Island,NY,United States",1830,"Astoria Provisions, 12-23, Astoria Boulevard, Astoria, Queens, Queens County, New York, 11102, United States","(40.7722369, -73.9291489, 0.0)",40.7722369,-73.9291489,0.0
165,nan,1970,"Nanno, Ville d'Anaunia, Comunità della Val di Non, Provincia di Trento, Trentino-Alto Adige/Südtirol, 38012, Italia","(46.3144754, 11.0480288, 0.0)",46.3144754,11.0480288,0.0
166,"William street,New York,NY,United States",1850,"William Street, Financial District, Manhattan, New York County, New York, 10038, United States","(40.7103582, -74.0056377, 0.0)",40.7103582,-74.0056377,0.0
168,nan,1850,"Nanno, Ville d'Anaunia, Comunità della Val di Non, Provincia di Trento, Trentino-Alto Adige/Südtirol, 38012, Italia","(46.3144754, 11.0480288, 0.0)",46.3144754,11.0480288,0.0
169,nan,1860,"Nanno, Ville d'Anaunia, Comunità della Val di Non, Provincia di Trento, Trentino-Alto Adige/Südtirol, 38012, Italia","(46.3144754, 11.0480288, 0.0)",46.3144754,11.0480288,0.0
170,"Halsey st,Brooklyn,NY,United States",1860,"Halsey Street, Broadway, Brooklyn, Kings County, New York, 11207, United States","(40.6859193, -73.915852, 0.0)",40.6859193,-73.915852,0.0
172,"126th street,Harlem,NY,United States",1840,"West 126th Street, Harlem, Manhattanville, Manhattan, New York County, New York, 10027, United States","(40.8105486, -73.9499837, 0.0)",40.8105486,-73.9499837,0.0
173,"Murray street,New York,NY,United States",1860,"Murray Street, Tribeca, Manhattan, New York County, New York, 10007, United States","(40.7138516, -74.0089485, 0.0)",40.7138516,-74.0089485,0.0
174,"Murray street,New York,NY,United States",1870,"Murray Street, Tribeca, Manhattan, New York County, New York, 10007, United States","(40.7138516, -74.0089485, 0.0)",40.7138516,-74.0089485,0.0
176,"Front street,New York,NY,United States",1860,"Front Street, Keeseville, Clinton County, New York, 12944, United States","(44.5077892, -73.4794485, 0.0)",44.5077892,-73.4794485,0.0
177,nan,1850,"Nanno, Ville d'Anaunia, Comunità della Val di Non, Provincia di Trento, Trentino-Alto Adige/Südtirol, 38012, Italia","(46.3144754, 11.0480288, 0.0)",46.3144754,11.0480288,0.0
178,"East 59th street,New York,NY,United States",1870,"East 59th Street, Midtown East, Manhattan, New York County, New York, 10022, United States","(40.762968, -73.9699036, 0.0)",40.762968,-73.9699036,0.0
179,"East 80th street,New York ,NY,United States",1870,"East 80th Street, Paerdegat, Brooklyn, Kings County, New York, 11236, United States","(40.633857, -73.911437, 0.0)",40.633857,-73.911437,0.0
180,nan,1850,"Nanno, Ville d'Anaunia, Comunità della Val di Non, Provincia di Trento, Trentino-Alto Adige/Südtirol, 38012, Italia","(46.3144754, 11.0480288, 0.0)",46.3144754,11.0480288,0.0
181,nan,1870,"Nanno, Ville d'Anaunia, Comunità della Val di Non, Provincia di Trento, Trentino-Alto Adige/Südtirol, 38012, Italia","(46.3144754, 11.0480288, 0.0)",46.3144754,11.0480288,0.0
182,"Broadway,New York City,NY,United States",1850,"Broadway, NoMad, Manhattan, New York County, New York, 10019, United States","(40.7461241, -73.9885976, 0.0)",40.7461241,-73.9885976,0.0
183,nan,1850,"Nanno, Ville d'Anaunia, Comunità della Val di Non, Provincia di Trento, Trentino-Alto Adige/Südtirol, 38012, Italia","(46.3144754, 11.0480288, 0.0)",46.3144754,11.0480288,0.0
184,nan,1870,"Nanno, Ville d'Anaunia, Comunità della Val di Non, Provincia di Trento, Trentino-Alto Adige/Südtirol, 38012, Italia","(46.3144754, 11.0480288, 0.0)",46.3144754,11.0480288,0.0
187,nan,1870,"Nanno, Ville d'Anaunia, Comunità della Val di Non, Provincia di Trento, Trentino-Alto Adige/Südtirol, 38012, Italia","(46.3144754, 11.0480288, 0.0)",46.3144754,11.0480288,0.0
188,nan,1840,"Nanno, Ville d'Anaunia, Comunità della Val di Non, Provincia di Trento, Trentino-Alto Adige/Südtirol, 38012, Italia","(46.3144754, 11.0480288, 0.0)",46.3144754,11.0480288,0.0
189,"West 15th street,New York ,NY,United States",1860,"West 15th Street, Coney Island, Brooklyn, Kings County, New York, 11224, United States","(40.574793, -73.98215, 0.0)",40.574793,-73.98215,0.0
190,nan,1870,"Nanno, Ville d'Anaunia, Comunità della Val di Non, Provincia di Trento, Trentino-Alto Adige/Südtirol, 38012, Italia","(46.3144754, 11.0480288, 0.0)",46.3144754,11.0480288,0.0
191,nan,1830,"Nanno, Ville d'Anaunia, Comunità della Val di Non, Provincia di Trento, Trentino-Alto Adige/Südtirol, 38012, Italia","(46.3144754, 11.0480288, 0.0)",46.3144754,11.0480288,0.0
193,nan,1850,"Nanno, Ville d'Anaunia, Comunità della Val di Non, Provincia di Trento, Trentino-Alto Adige/Südtirol, 38012, Italia","(46.3144754, 11.0480288, 0.0)",46.3144754,11.0480288,0.0
194,"East 86th street,New York,NY ,United States",1870,"East 86th Street, Yorkville, Manhattan, New York County, New York, 10028, United States","(40.7767914, -73.9491434, 0.0)",40.7767914,-73.9491434,0.0
195,"Lexington ave.,New York,NY,United States",1830,"Lexington Avenue, Midtown East, Manhattan, New York County, New York, 10037, United States","(40.753367, -73.974648, 0.0)",40.753367,-73.974648,0.0
196,"East 116th street,New York,NY,United States",1860,"East 116th Street, Manhattan Community Board 11, Manhattan, New York County, New York, 10029, United States","(40.7947697, -73.9324748, 0.0)",40.7947697,-73.9324748,0.0
197,nan,1840,"Nanno, Ville d'Anaunia, Comunità della Val di Non, Provincia di Trento, Trentino-Alto Adige/Südtirol, 38012, Italia","(46.3144754, 11.0480288, 0.0)",46.3144754,11.0480288,0.0
198,"Broadway,New York,NY ,United States",1870,"Broadway, NoMad, Manhattan, New York County, New York, 10019, United States","(40.7461241, -73.9885976, 0.0)",40.7461241,-73.9885976,0.0
199,"Bond street,New York,NY ,United States",1860,"Bond Street, NoHo, Manhattan, New York County, New York, 10012, United States","(40.7269405, -73.9947295, 0.0)",40.7269405,-73.9947295,0.0
200,"Chambers street,New York,NY,United States",1860,"Chambers Street, Lower Manhattan, Civic Center, Manhattan, New York County, New York, 10000, United States","(40.7139194, -74.0057551, 0.0)",40.7139194,-74.0057551,0.0
201,nan,1860,"Nanno, Ville d'Anaunia, Comunità della Val di Non, Provincia di Trento, Trentino-Alto Adige/Südtirol, 38012, Italia","(46.3144754, 11.0480288, 0.0)",46.3144754,11.0480288,0.0
202,"Lexington ave.,New York,NY,United States",1860,"Lexington Avenue, Midtown East, Manhattan, New York County, New York, 10037, United States","(40.753367, -73.974648, 0.0)",40.753367,-73.974648,0.0
203,"Lexington ave.,New York,NY,United States",1860,"Lexington Avenue, Midtown East, Manhattan, New York County, New York, 10037, United States","(40.753367, -73.974648, 0.0)",40.753367,-73.974648,0.0
205,"Bank street,New York,NY,United States",1870,"Bank Street, West Village, Manhattan, New York County, New York, 10014, United States","(40.736839, -74.003714, 0.0)",40.736839,-74.003714,0.0
206,"West 30th st.,New York,NY,United States",1860,"West 30th Street, Hudson Yards, Manhattan, New York County, New York, 10001, United States","(40.7524126, -74.0017869, 0.0)",40.7524126,-74.0017869,0.0
207,"West 17th street,New York ,NY,United States",1850,"West 17th Street, Coney Island, Brooklyn, Kings County, New York, 11224, United States","(40.5753405, -73.9845266, 0.0)",40.5753405,-73.9845266,0.0
208,"East 37th street,New York,NY,United States",1850,"East 37th Street, Flatlands, Brooklyn, Kings County, New York, 11210, United States","(40.6275256, -73.9403025, 0.0)",40.6275256,-73.9403025,0.0
209,nan,1860,"Nanno, Ville d'Anaunia, Comunità della Val di Non, Provincia di Trento, Trentino-Alto Adige/Südtirol, 38012, Italia","(46.3144754, 11.0480288, 0.0)",46.3144754,11.0480288,0.0
210,"Nassau street,New York,NY,United States",1870,"Nassau Street, Financial District, Manhattan, New York County, New York, 10038, United States","(40.7116446, -74.0059076, 0.0)",40.7116446,-74.0059076,0.0
212,"Lexington ave.,New York ,NY,United States",1870,"Lexington Avenue, Midtown East, Manhattan, New York County, New York, 10037, United States","(40.753367, -73.974648, 0.0)",40.753367,-73.974648,0.0
213,nan,1850,"Nanno, Ville d'Anaunia, Comunità della Val di Non, Provincia di Trento, Trentino-Alto Adige/Südtirol, 38012, Italia","(46.3144754, 11.0480288, 0.0)",46.3144754,11.0480288,0.0
214,"Sands st.,Brooklyn,NY,United States",1840,"Sands Street, DUMBO, Brooklyn, Kings County, New York, 11201, United States","(40.6998682, -73.9844536, 0.0)",40.6998682,-73.9844536,0.0
215,nan,1830,"Nanno, Ville d'Anaunia, Comunità della Val di Non, Provincia di Trento, Trentino-Alto Adige/Südtirol, 38012, Italia","(46.3144754, 11.0480288, 0.0)",46.3144754,11.0480288,0.0
216,nan,1840,"Nanno, Ville d'Anaunia, Comunità della Val di Non, Provincia di Trento, Trentino-Alto Adige/Südtirol, 38012, Italia","(46.3144754, 11.0480288, 0.0)",46.3144754,11.0480288,0.0
217,"E. 49th street,New York,NY,United States",1860,"East 49th Street, Turtle Bay, Manhattan, New York County, New York, 10017, United States","(40.7526344, -73.9651396, 0.0)",40.7526344,-73.9651396,0.0
218,"8th avenue,New York,NY,United States",1870,"8th Avenue, Theater District, Manhattan, New York County, New York, 100036, United States","(40.756567, -73.990276, 0.0)",40.756567,-73.990276,0.0
219,nan,1850,"Nanno, Ville d'Anaunia, Comunità della Val di Non, Provincia di Trento, Trentino-Alto Adige/Südtirol, 38012, Italia","(46.3144754, 11.0480288, 0.0)",46.3144754,11.0480288,0.0
220,"Greenwich ave.,New York,NY,United States",1860,"Greenwich Avenue, West Village, Manhattan, New York County, New York, 10014, United States","(40.737168, -74.001463, 0.0)",40.737168,-74.001463,0.0
221,"Greene,Brooklyn,NY,United States",1870,"Fort Greene, Brooklyn, Kings County, New York, 11227, United States","(40.6907711, -73.9766245, 0.0)",40.6907711,-73.9766245,0.0
222,nan,1850,"Nanno, Ville d'Anaunia, Comunità della Val di Non, Provincia di Trento, Trentino-Alto Adige/Südtirol, 38012, Italia","(46.3144754, 11.0480288, 0.0)",46.3144754,11.0480288,0.0
223,"East 34th street,New York,NY,United States",1850,"East 34th Street, Manhattan Community Board 6, Manhattan, New York County, New York, 10016, United States","(40.7445155, -73.9752881, 0.0)",40.7445155,-73.9752881,0.0
224,"Broadway,New York,NY,United States",1840,"Broadway, NoMad, Manhattan, New York County, New York, 10019, United States","(40.7461241, -73.9885976, 0.0)",40.7461241,-73.9885976,0.0
225,"Wall street,New York ,NY,United States",1850,"Wall Street, Financial District, Manhattan, New York County, New York, 10005, United States","(40.7060194, -74.0088308, 0.0)",40.7060194,-74.0088308,0.0
226,"Cliff street,New York,NY,United States",1860,"Cliff Street, Middleburgh, Town of Middleburgh, Schoharie County, New York, 12122, United States","(42.5995184, -74.3232875, 0.0)",42.5995184,-74.3232875,0.0
227,"Union St. ,Brooklyn,NY,United States",1860,"Union Street, 4th Avenue, Gowanus, Brooklyn, Kings County, New York, 11217, United States","(40.677316, -73.98311, 0.0)",40.677316,-73.98311,0.0
228,"Broadway,New York,NY,United States",1850,"Broadway, NoMad, Manhattan, New York County, New York, 10019, United States","(40.7461241, -73.9885976, 0.0)",40.7461241,-73.9885976,0.0
229,nan,1860,"Nanno, Ville d'Anaunia, Comunità della Val di Non, Provincia di Trento, Trentino-Alto Adige/Südtirol, 38012, Italia","(46.3144754, 11.0480288, 0.0)",46.3144754,11.0480288,0.0
231,"East 57th street,New York,NY,United States",1870,"East 57th Street, Midtown East, Manhattan, New York County, New York, 10022, United States","(40.7583569, -73.9630276, 0.0)",40.7583569,-73.9630276,0.0
232,nan,1870,"Nanno, Ville d'Anaunia, Comunità della Val di Non, Provincia di Trento, Trentino-Alto Adige/Südtirol, 38012, Italia","(46.3144754, 11.0480288, 0.0)",46.3144754,11.0480288,0.0
233,nan,1870,"Nanno, Ville d'Anaunia, Comunità della Val di Non, Provincia di Trento, Trentino-Alto Adige/Südtirol, 38012, Italia","(46.3144754, 11.0480288, 0.0)",46.3144754,11.0480288,0.0
234,nan,1880,"Nanno, Ville d'Anaunia, Comunità della Val di Non, Provincia di Trento, Trentino-Alto Adige/Südtirol, 38012, Italia","(46.3144754, 11.0480288, 0.0)",46.3144754,11.0480288,0.0
235,"Fulton street,New York,NY,United States",1870,"Fulton Street, Manhattan Community Board 1, Manhattan, New York County, New York, 10038, United States","(40.7101857, -74.0076638, 0.0)",40.7101857,-74.0076638,0.0
236,nan,1850,"Nanno, Ville d'Anaunia, Comunità della Val di Non, Provincia di Trento, Trentino-Alto Adige/Südtirol, 38012, Italia","(46.3144754, 11.0480288, 0.0)",46.3144754,11.0480288,0.0
237,nan,1870,"Nanno, Ville d'Anaunia, Comunità della Val di Non, Provincia di Trento, Trentino-Alto Adige/Südtirol, 38012, Italia","(46.3144754, 11.0480288, 0.0)",46.3144754,11.0480288,0.0
238,nan,1860,"Nanno, Ville d'Anaunia, Comunità della Val di Non, Provincia di Trento, Trentino-Alto Adige/Südtirol, 38012, Italia","(46.3144754, 11.0480288, 0.0)",46.3144754,11.0480288,0.0
239,"Liberty street,New York,NY,United States",1860,"Liberty Street, Battery Park City, Financial District, Manhattan, New York County, New York, 10005, United States","(40.7110691, -74.0145067, 0.0)",40.7110691,-74.0145067,0.0
240,"East 125th st. ,New York,NY,United States",1860,"East 125th Street, Manhattan Community Board 11, Manhattan, New York County, New York, 10035-3501, United States","(40.8027161, -73.9334407, 0.0)",40.8027161,-73.9334407,0.0
242,"Pine street,New York,NY,United States",1870,"Pine Street, Downtown Jamestown, Jamestown, Chautauqua County, New York, 14701, United States","(42.0977659, -79.2404402, 0.0)",42.0977659,-79.2404402,0.0
243,"Gates av.,Brooklyn,NY,United States",1860,"Gates Avenue, Broadway, Bushwick, Brooklyn, Kings County, New York, 11207, United States","(40.6895761, -73.9222019, 0.0)",40.6895761,-73.9222019,0.0
246,"Madison ave,New York,NY,United States",1860,"Madison Avenue, Upper East Side, Manhattan, New York County, New York, 10037, United States","(40.7776964, -73.9611218, 0.0)",40.7776964,-73.9611218,0.0
247,"6th avenue,New York,NY,United States",1870,"6th Avenue, Hudson Square, Manhattan, New York County, New York, 10019, United States","(40.7248717, -74.0042981, 0.0)",40.7248717,-74.0042981,0.0
248,"4th avenue,New York,NY,United States",1860,"Park Avenue South, Rose Hill, Manhattan, New York County, New York, 10016, United States","(40.7433005, -73.9840243, 0.0)",40.7433005,-73.9840243,0.0
249,"West 44th street,New York,NY,United States",1870,"West 44th Street, Times Square, Manhattan, New York County, New York, 10036, United States","(40.7585323, -73.9888429, 0.0)",40.7585323,-73.9888429,0.0
250,nan,1840,"Nanno, Ville d'Anaunia, Comunità della Val di Non, Provincia di Trento, Trentino-Alto Adige/Südtirol, 38012, Italia","(46.3144754, 11.0480288, 0.0)",46.3144754,11.0480288,0.0
251,"4th avenue,New York,NY,United States",1860,"Park Avenue South, Rose Hill, Manhattan, New York County, New York, 10016, United States","(40.7433005, -73.9840243, 0.0)",40.7433005,-73.9840243,0.0
253,nan,1850,"Nanno, Ville d'Anaunia, Comunità della Val di Non, Provincia di Trento, Trentino-Alto Adige/Südtirol, 38012, Italia","(46.3144754, 11.0480288, 0.0)",46.3144754,11.0480288,0.0
254,"East 25th street,New York,NY,United States",1860,"East 25th Street, Flatiron District, Manhattan, New York County, New York, 10010, United States","(40.7416216, -73.9858177, 0.0)",40.7416216,-73.9858177,0.0
255,nan,1870,"Nanno, Ville d'Anaunia, Comunità della Val di Non, Provincia di Trento, Trentino-Alto Adige/Südtirol, 38012, Italia","(46.3144754, 11.0480288, 0.0)",46.3144754,11.0480288,0.0
256,"Bleecker street,New York,NY,United States",1850,"Bleecker Street, NoHo, Manhattan, New York County, New York, 10012, United States","(40.7256586, -73.9937515, 0.0)",40.7256586,-73.9937515,0.0
257,"Canal street,New York,NY,United States",1840,"Canal Street, SoHo, Manhattan, New York County, New York, 10013, United States","(40.7186195, -74.0007681, 0.0)",40.7186195,-74.0007681,0.0
258,"Grand street,New York,NY,United States",1850,"Grand Street, East River Cooperative, Manhattan, New York County, New York, 10002-1013, United States","(40.7137425, -73.979194, 0.0)",40.7137425,-73.979194,0.0
259,"Macon st.,Brooklyn,NY,United States",1850,"Macon Street, BEDFORD STUYVESANT/ EXPANDED STUYVEVSANT HEIGHTS HISTORIC DISTRICT, Brooklyn, Kings County, New York, 11233, United States","(40.6834352, -73.9291606, 0.0)",40.6834352,-73.9291606,0.0
260,"West 21st st.,New York,NY,United States",1870,"West 21st Street, Coney Island, Brooklyn, Kings County, New York, 11224, United States","(40.5736826, -73.9874583, 0.0)",40.5736826,-73.9874583,0.0
261,nan,1860,"Nanno, Ville d'Anaunia, Comunità della Val di Non, Provincia di Trento, Trentino-Alto Adige/Südtirol, 38012, Italia","(46.3144754, 11.0480288, 0.0)",46.3144754,11.0480288,0.0
262,"South street,New York,NY,United States",1860,"South Street, Financial District, Manhattan, New York County, New York, 10038, United States","(40.7067145, -74.0023323, 0.0)",40.7067145,-74.0023323,0.0
263,"Pearl st. ,Brooklyn,NY,United States",1840,"Pearl Street, DUMBO, Brooklyn, Kings County, New York, 11201, United States","(40.6999112, -73.9877802, 0.0)",40.6999112,-73.9877802,0.0
264,nan,1860,"Nanno, Ville d'Anaunia, Comunità della Val di Non, Provincia di Trento, Trentino-Alto Adige/Südtirol, 38012, Italia","(46.3144754, 11.0480288, 0.0)",46.3144754,11.0480288,0.0
265,nan,1860,"Nanno, Ville d'Anaunia, Comunità della Val di Non, Provincia di Trento, Trentino-Alto Adige/Südtirol, 38012, Italia","(46.3144754, 11.0480288, 0.0)",46.3144754,11.0480288,0.0
266,nan,1860,"Nanno, Ville d'Anaunia, Comunità della Val di Non, Provincia di Trento, Trentino-Alto Adige/Südtirol, 38012, Italia","(46.3144754, 11.0480288, 0.0)",46.3144754,11.0480288,0.0
267,nan,1870,"Nanno, Ville d'Anaunia, Comunità della Val di Non, Provincia di Trento, Trentino-Alto Adige/Südtirol, 38012, Italia","(46.3144754, 11.0480288, 0.0)",46.3144754,11.0480288,0.0
268,"West 45th street,New York,NY,United States",1870,"West 45th Street, Hell's Kitchen, Manhattan, New York County, New York, 10036, United States","(40.7627398, -73.99689, 0.0)",40.7627398,-73.99689,0.0
269,"Nassau street,New York,NY,United States",1870,"Nassau Street, Financial District, Manhattan, New York County, New York, 10038, United States","(40.7116446, -74.0059076, 0.0)",40.7116446,-74.0059076,0.0
271,"Broadway,New York,NY,United States",1850,"Broadway, NoMad, Manhattan, New York County, New York, 10019, United States","(40.7461241, -73.9885976, 0.0)",40.7461241,-73.9885976,0.0
272,"Broadway,New York,NY,United States",1840,"Broadway, NoMad, Manhattan, New York County, New York, 10019, United States","(40.7461241, -73.9885976, 0.0)",40.7461241,-73.9885976,0.0
273,"East 14th street,New York,NY,United States",1860,"East 14th Street, Stuy Town, Manhattan, New York County, New York, 10009:10010, United States","(40.7294404, -73.9780305, 0.0)",40.7294404,-73.9780305,0.0
274,nan,1860,"Nanno, Ville d'Anaunia, Comunità della Val di Non, Provincia di Trento, Trentino-Alto Adige/Südtirol, 38012, Italia","(46.3144754, 11.0480288, 0.0)",46.3144754,11.0480288,0.0
275,nan,1850,"Nanno, Ville d'Anaunia, Comunità della Val di Non, Provincia di Trento, Trentino-Alto Adige/Südtirol, 38012, Italia","(46.3144754, 11.0480288, 0.0)",46.3144754,11.0480288,0.0
276,nan,1820,"Nanno, Ville d'Anaunia, Comunità della Val di Non, Provincia di Trento, Trentino-Alto Adige/Südtirol, 38012, Italia","(46.3144754, 11.0480288, 0.0)",46.3144754,11.0480288,0.0
277,"West 44th st.,New York,NY,United States",1870,"West 44th Street, Times Square, Manhattan, New York County, New York, 10036, United States","(40.7585323, -73.9888429, 0.0)",40.7585323,-73.9888429,0.0
278,nan,1860,"Nanno, Ville d'Anaunia, Comunità della Val di Non, Provincia di Trento, Trentino-Alto Adige/Südtirol, 38012, Italia","(46.3144754, 11.0480288, 0.0)",46.3144754,11.0480288,0.0
279,nan,1850,"Nanno, Ville d'Anaunia, Comunità della Val di Non, Provincia di Trento, Trentino-Alto Adige/Südtirol, 38012, Italia","(46.3144754, 11.0480288, 0.0)",46.3144754,11.0480288,0.0
281,"4th street,Jersey City (J.C.),NJ,United States",1860,"4th Street, Newport, Jersey City, Hudson County, New Jersey, 07302, United States","(40.7242425, -74.0474216, 0.0)",40.7242425,-74.0474216,0.0
282,nan,1860,"Nanno, Ville d'Anaunia, Comunità della Val di Non, Provincia di Trento, Trentino-Alto Adige/Südtirol, 38012, Italia","(46.3144754, 11.0480288, 0.0)",46.3144754,11.0480288,0.0
283,nan,1860,"Nanno, Ville d'Anaunia, Comunità della Val di Non, Provincia di Trento, Trentino-Alto Adige/Südtirol, 38012, Italia","(46.3144754, 11.0480288, 0.0)",46.3144754,11.0480288,0.0
284,nan,1840,"Nanno, Ville d'Anaunia, Comunità della Val di Non, Provincia di Trento, Trentino-Alto Adige/Südtirol, 38012, Italia","(46.3144754, 11.0480288, 0.0)",46.3144754,11.0480288,0.0
285,nan,1870,"Nanno, Ville d'Anaunia, Comunità della Val di Non, Provincia di Trento, Trentino-Alto Adige/Südtirol, 38012, Italia","(46.3144754, 11.0480288, 0.0)",46.3144754,11.0480288,0.0
286,"East 54th street,New York,NY,United States",1860,"East 54th Street, Midtown East, Manhattan, New York County, New York, 10022, United States","(40.7573379, -73.9665997, 0.0)",40.7573379,-73.9665997,0.0
287,"West 45th street,New York,NY,United States",1870,"West 45th Street, Hell's Kitchen, Manhattan, New York County, New York, 10036, United States","(40.7627398, -73.99689, 0.0)",40.7627398,-73.99689,0.0
288,"Pearl st. ,New York,NY,United States",1850,"Pearl Street, Manhattan Community Board 1, Manhattan, New York County, New York, 10038, United States","(40.7041169, -74.0100855, 0.0)",40.7041169,-74.0100855,0.0
290,nan,1840,"Nanno, Ville d'Anaunia, Comunità della Val di Non, Provincia di Trento, Trentino-Alto Adige/Südtirol, 38012, Italia","(46.3144754, 11.0480288, 0.0)",46.3144754,11.0480288,0.0
291,nan,1850,"Nanno, Ville d'Anaunia, Comunità della Val di Non, Provincia di Trento, Trentino-Alto Adige/Südtirol, 38012, Italia","(46.3144754, 11.0480288, 0.0)",46.3144754,11.0480288,0.0
293,"East 31st street,New York,NY,United States",1870,"East 31st Street, Brooklyn, Kings County, New York, 11210, United States","(40.634059, -73.946805, 0.0)",40.634059,-73.946805,0.0
294,"William street,New York,NY,United States",1870,"William Street, Financial District, Manhattan, New York County, New York, 10038, United States","(40.7103582, -74.0056377, 0.0)",40.7103582,-74.0056377,0.0
295,nan,1830,"Nanno, Ville d'Anaunia, Comunità della Val di Non, Provincia di Trento, Trentino-Alto Adige/Südtirol, 38012, Italia","(46.3144754, 11.0480288, 0.0)",46.3144754,11.0480288,0.0
296,"West 46th st,New York,NY,United States",1840,"West 46th Street, Theater District, Manhattan, New York County, New York, 10036, United States","(40.7591928, -73.9865189, 0.0)",40.7591928,-73.9865189,0.0
298,"East 126th st. ,New York,NY,United States",1870,"East 126th Street, Manhattan Community Board 11, Manhattan, New York County, New York, 10035-3501, United States","(40.8056738, -73.9384143, 0.0)",40.8056738,-73.9384143,0.0
299,"West 125th st. ,New York,NY,United States",1860,"West 125th Street, Manhattan Community Board 9, Manhattan, New York County, New York, 10027, United States","(40.8178078, -73.9602699, 0.0)",40.8178078,-73.9602699,0.0
301,"Herkimer,Brooklyn,NY,United States",1870,"Herkimer Street, Broadway Junction, Brooklyn, Kings County, New York, 11207, United States","(40.6770655, -73.9024302, 0.0)",40.6770655,-73.9024302,0.0
302,nan,1840,"Nanno, Ville d'Anaunia, Comunità della Val di Non, Provincia di Trento, Trentino-Alto Adige/Südtirol, 38012, Italia","(46.3144754, 11.0480288, 0.0)",46.3144754,11.0480288,0.0
303,nan,1860,"Nanno, Ville d'Anaunia, Comunità della Val di Non, Provincia di Trento, Trentino-Alto Adige/Südtirol, 38012, Italia","(46.3144754, 11.0480288, 0.0)",46.3144754,11.0480288,0.0
305,nan,1850,"Nanno, Ville d'Anaunia, Comunità della Val di Non, Provincia di Trento, Trentino-Alto Adige/Südtirol, 38012, Italia","(46.3144754, 11.0480288, 0.0)",46.3144754,11.0480288,0.0
307,"Centre street,New York,NY,United States",1850,"Centre Street, Lower Manhattan, Civic Center, Manhattan, New York County, New York, 10013, United States","(40.7150746, -74.002189, 0.0)",40.7150746,-74.002189,0.0
308,nan,1830,"Nanno, Ville d'Anaunia, Comunità della Val di Non, Provincia di Trento, Trentino-Alto Adige/Südtirol, 38012, Italia","(46.3144754, 11.0480288, 0.0)",46.3144754,11.0480288,0.0
309,"Wall street,New York,NY,United States",1860,"Wall Street, Financial District, Manhattan, New York County, New York, 10005, United States","(40.7060194, -74.0088308, 0.0)",40.7060194,-74.0088308,0.0
310,"Broadway,New York,NY,United States",1850,"Broadway, NoMad, Manhattan, New York County, New York, 10019, United States","(40.7461241, -73.9885976, 0.0)",40.7461241,-73.9885976,0.0
311,"Broadway,New York,NY,United States",1860,"Broadway, NoMad, Manhattan, New York County, New York, 10019, United States","(40.7461241, -73.9885976, 0.0)",40.7461241,-73.9885976,0.0
312,"Beach street,New York,NY,United States",1860,"Beach Street, Town of Oyster Bay, Nassau County, New York, 11735, United States","(40.726746, -73.46711, 0.0)",40.726746,-73.46711,0.0
313,nan,1860,"Nanno, Ville d'Anaunia, Comunità della Val di Non, Provincia di Trento, Trentino-Alto Adige/Südtirol, 38012, Italia","(46.3144754, 11.0480288, 0.0)",46.3144754,11.0480288,0.0
316,"East 91st street,New York,NY,United States",1860,"East 91st Street, Brooklyn Community District 17, Brooklyn, Kings County, New York, 11236, United States","(40.654918, -73.921005, 0.0)",40.654918,-73.921005,0.0
317,"Cooper Union,New York,NY,United States",1860,"The Cooper Union, Cooper Square, Manhattan Community Board 3, Manhattan, New York County, New York, 10003, United States","(40.7295282, -73.9905606, 0.0)",40.7295282,-73.9905606,0.0
318,"West 27th street,New York,NY,United States",1860,"West 27th Street, Chelsea District, Manhattan, New York County, New York, 10001, United States","(40.7473822, -73.9956096, 0.0)",40.7473822,-73.9956096,0.0
319,"West 28th street,New York,NY,United States",1860,"West 28th Street, Coney Island, Brooklyn, Kings County, New York, 11224, United States","(40.5720188, -73.993632, 0.0)",40.5720188,-73.993632,0.0
320,"Broadway,New York,NY,United States",1840,"Broadway, NoMad, Manhattan, New York County, New York, 10019, United States","(40.7461241, -73.9885976, 0.0)",40.7461241,-73.9885976,0.0
321,"Liberty street,New York,NY,United States",1860,"Liberty Street, Battery Park City, Financial District, Manhattan, New York County, New York, 10005, United States","(40.7110691, -74.0145067, 0.0)",40.7110691,-74.0145067,0.0
322,"West 11th street,New York,NY,United States",1870,"West 11th Street, Greenwich Village, West Village, Manhattan, New York County, New York, 10014, United States","(40.7353381, -73.9981478, 0.0)",40.7353381,-73.9981478,0.0
323,nan,1860,"Nanno, Ville d'Anaunia, Comunità della Val di Non, Provincia di Trento, Trentino-Alto Adige/Südtirol, 38012, Italia","(46.3144754, 11.0480288, 0.0)",46.3144754,11.0480288,0.0
324,"East 61st street,New York,NY,United States",1860,"East 61st Street, Lenox Hill, Manhattan, New York County, New York, 10021, United States","(40.7614854, -73.9625282, 0.0)",40.7614854,-73.9625282,0.0
325,"East 10th street,New York,NY,United States",1850,"East 10th Street, Brooklyn, Kings County, New York, 11223, United States","(40.627044, -73.966623, 0.0)",40.627044,-73.966623,0.0
326,"West 28th street,New York,NY,United States",1860,"West 28th Street, Coney Island, Brooklyn, Kings County, New York, 11224, United States","(40.5720188, -73.993632, 0.0)",40.5720188,-73.993632,0.0
327,"East 29th street,New York,NY,United States",1860,"East 29th Street, Brooklyn, Kings County, New York, 11229, United States","(40.6152395, -73.9457135, 0.0)",40.6152395,-73.9457135,0.0
328,"Broadway,New York,NY,United States",1830,"Broadway, NoMad, Manhattan, New York County, New York, 10019, United States","(40.7461241, -73.9885976, 0.0)",40.7461241,-73.9885976,0.0
329,"Pine street,New York,NY,United States",1860,"Pine Street, Downtown Jamestown, Jamestown, Chautauqua County, New York, 14701, United States","(42.0977659, -79.2404402, 0.0)",42.0977659,-79.2404402,0.0
330,nan,1860,"Nanno, Ville d'Anaunia, Comunità della Val di Non, Provincia di Trento, Trentino-Alto Adige/Südtirol, 38012, Italia","(46.3144754, 11.0480288, 0.0)",46.3144754,11.0480288,0.0
332,nan,1840,"Nanno, Ville d'Anaunia, Comunità della Val di Non, Provincia di Trento, Trentino-Alto Adige/Südtirol, 38012, Italia","(46.3144754, 11.0480288, 0.0)",46.3144754,11.0480288,0.0
333,"Lexington avenue,New York,NY,United States",1840,"Lexington Avenue, Midtown East, Manhattan, New York County, New York, 10037, United States","(40.753367, -73.974648, 0.0)",40.753367,-73.974648,0.0
334,nan,1860,"Nanno, Ville d'Anaunia, Comunità della Val di Non, Provincia di Trento, Trentino-Alto Adige/Südtirol, 38012, Italia","(46.3144754, 11.0480288, 0.0)",46.3144754,11.0480288,0.0
335,"West 24th street,New York,NY,United States",1860,"West 24th Street, Coney Island, Brooklyn, Kings County, New York, 11224, United States","(40.5728046, -73.9905353, 0.0)",40.5728046,-73.9905353,0.0
336,"East 37th street,New York,NY,United States",1840,"East 37th Street, Flatlands, Brooklyn, Kings County, New York, 11210, United States","(40.6275256, -73.9403025, 0.0)",40.6275256,-73.9403025,0.0
337,"Division street,New York,NY,United States",1850,"Division Street, Chinatown, Manhattan, New York County, New York, 10002, United States","(40.7143255, -73.9934154, 0.0)",40.7143255,-73.9934154,0.0
338,"Centre street,New York,NY,United States",1850,"Centre Street, Lower Manhattan, Civic Center, Manhattan, New York County, New York, 10013, United States","(40.7150746, -74.002189, 0.0)",40.7150746,-74.002189,0.0
339,nan,1850,"Nanno, Ville d'Anaunia, Comunità della Val di Non, Provincia di Trento, Trentino-Alto Adige/Südtirol, 38012, Italia","(46.3144754, 11.0480288, 0.0)",46.3144754,11.0480288,0.0
340,"East 21st street,New York,NY,United States",1860,"East 21st Street, Sheepshead Bay, Brooklyn, Kings County, New York, 11235, United States","(40.5974814, -73.9499928, 0.0)",40.5974814,-73.9499928,0.0
342,"West 37th street,New York,NY,United States",1850,"West 37th Street, Coney Island, Brooklyn, Kings County, New York, 11224, United States","(40.5748526, -74.002821, 0.0)",40.5748526,-74.002821,0.0
343,"Lefferts,Brooklyn,NY,United States",1840,"Lefferts Historic House, 452, Flatbush Avenue, Prospect Heights, Brooklyn, Kings County, New York, 11215, United States","(40.664346550000005, -73.96378014953419, 0.0)",40.664346550000005,-73.96378014953419,0.0
345,nan,1860,"Nanno, Ville d'Anaunia, Comunità della Val di Non, Provincia di Trento, Trentino-Alto Adige/Südtirol, 38012, Italia","(46.3144754, 11.0480288, 0.0)",46.3144754,11.0480288,0.0
346,nan,1860,"Nanno, Ville d'Anaunia, Comunità della Val di Non, Provincia di Trento, Trentino-Alto Adige/Südtirol, 38012, Italia","(46.3144754, 11.0480288, 0.0)",46.3144754,11.0480288,0.0
347,"Hudson st. ,Jersey City,NJ,United States",1840,"Hudson Street, Colgate Center, Jersey City, Hudson County, New Jersey, 07302-4522, United States","(40.71307, -74.0348276, 0.0)",40.71307,-74.0348276,0.0
348,nan,1860,"Nanno, Ville d'Anaunia, Comunità della Val di Non, Provincia di Trento, Trentino-Alto Adige/Südtirol, 38012, Italia","(46.3144754, 11.0480288, 0.0)",46.3144754,11.0480288,0.0
349,"Madison avenue,New York ,NY,United States",1830,"Madison Avenue, Upper East Side, Manhattan, New York County, New York, 10037, United States","(40.7776964, -73.9611218, 0.0)",40.7776964,-73.9611218,0.0
350,"Woodside,Long Island,NY,United States",1870,"Real Estate Development of Flower Hill, Long Island, Flower Hill, Town of North Hempstead, Nassau County, New York, United States","(40.806305449999996, -73.68455916649381, 0.0)",40.806305449999996,-73.68455916649381,0.0
351,nan,1860,"Nanno, Ville d'Anaunia, Comunità della Val di Non, Provincia di Trento, Trentino-Alto Adige/Südtirol, 38012, Italia","(46.3144754, 11.0480288, 0.0)",46.3144754,11.0480288,0.0
352,nan,1840,"Nanno, Ville d'Anaunia, Comunità della Val di Non, Provincia di Trento, Trentino-Alto Adige/Südtirol, 38012, Italia","(46.3144754, 11.0480288, 0.0)",46.3144754,11.0480288,0.0
353,"East 79th street,New York,NY,United States",1860,"East 79th Street, Manhattan Community Board 8, Manhattan, New York County, New York, 10021, United States","(40.7703634, -73.9479142, 0.0)",40.7703634,-73.9479142,0.0
354,nan,1860,"Nanno, Ville d'Anaunia, Comunità della Val di Non, Provincia di Trento, Trentino-Alto Adige/Südtirol, 38012, Italia","(46.3144754, 11.0480288, 0.0)",46.3144754,11.0480288,0.0
356,"Wall street,New York,NY,United States",1860,"Wall Street, Financial District, Manhattan, New York County, New York, 10005, United States","(40.7060194, -74.0088308, 0.0)",40.7060194,-74.0088308,0.0
357,"John street,New York,NY,United States",1850,"John Street, Greenwich, Town of Greenwich, Washington County, New York, 12834, United States","(43.088432, -73.499432, 0.0)",43.088432,-73.499432,0.0
358,"Lexington ave.,New York ,NY,United States",1870,"Lexington Avenue, Midtown East, Manhattan, New York County, New York, 10037, United States","(40.753367, -73.974648, 0.0)",40.753367,-73.974648,0.0
360,"East 124th street,New York,NY,United States",1850,"East 124th Street, Manhattan Community Board 11, Manhattan, New York County, New York, 10035, United States","(40.8014854, -73.9330265, 0.0)",40.8014854,-73.9330265,0.0
361,"Greene,Brooklyn,NY,United States",1850,"Fort Greene, Brooklyn, Kings County, New York, 11227, United States","(40.6907711, -73.9766245, 0.0)",40.6907711,-73.9766245,0.0
363,"Greene,Brooklyn,NY,United States",1840,"Fort Greene, Brooklyn, Kings County, New York, 11227, United States","(40.6907711, -73.9766245, 0.0)",40.6907711,-73.9766245,0.0
364,"East 85th street,New York,NY,United States",1870,"East 85th Street, Upper East Side, Manhattan, New York County, New York, 10028, United States","(40.7802211, -73.959422, 0.0)",40.7802211,-73.959422,0.0
365,"Broadway,New York,NY,United States",1870,"Broadway, NoMad, Manhattan, New York County, New York, 10019, United States","(40.7461241, -73.9885976, 0.0)",40.7461241,-73.9885976,0.0
369,nan,1850,"Nanno, Ville d'Anaunia, Comunità della Val di Non, Provincia di Trento, Trentino-Alto Adige/Südtirol, 38012, Italia","(46.3144754, 11.0480288, 0.0)",46.3144754,11.0480288,0.0
370,"East 87th street,New York,NY,United States",1850,"East 87th Street, Canarsie, Brooklyn, Kings County, New York, 11236, United States","(40.6387062, -73.9080497, 0.0)",40.6387062,-73.9080497,0.0
372,"East 31st street,New York,NY,United States",1840,"East 31st Street, Brooklyn, Kings County, New York, 11210, United States","(40.634059, -73.946805, 0.0)",40.634059,-73.946805,0.0
373,"Nassau street,New York,NY,United States",1840,"Nassau Street, Financial District, Manhattan, New York County, New York, 10038, United States","(40.7116446, -74.0059076, 0.0)",40.7116446,-74.0059076,0.0
374,"Washington pl.,New York,NY,United States",1870,"Washington Plaza, Williamsburg, Brooklyn, Kings County, New York, United States","(40.7105512, -73.95977462624131, 0.0)",40.7105512,-73.95977462624131,0.0
375,nan,1860,"Nanno, Ville d'Anaunia, Comunità della Val di Non, Provincia di Trento, Trentino-Alto Adige/Südtirol, 38012, Italia","(46.3144754, 11.0480288, 0.0)",46.3144754,11.0480288,0.0
376,"East 14th street,New York,NY,United States",1870,"East 14th Street, Stuy Town, Manhattan, New York County, New York, 10009:10010, United States","(40.7294404, -73.9780305, 0.0)",40.7294404,-73.9780305,0.0
377,"Greene street,Brooklyn,NY,United States",1870,"Fulton Street & Fort Greene Place, Fulton Street, Fort Greene, Brooklyn, Kings County, New York, 11207, United States","(40.6872136, -73.9767777, 0.0)",40.6872136,-73.9767777,0.0
378,"East 12th street,New York ,NY,United States",1850,"East 12th Street, Brooklyn, Kings County, New York, 11235, United States","(40.5831547, -73.9572683, 0.0)",40.5831547,-73.9572683,0.0
379,"East 12th street,New York,NY,United States",1850,"East 12th Street, Brooklyn, Kings County, New York, 11235, United States","(40.5831547, -73.9572683, 0.0)",40.5831547,-73.9572683,0.0
380,nan,1860,"Nanno, Ville d'Anaunia, Comunità della Val di Non, Provincia di Trento, Trentino-Alto Adige/Südtirol, 38012, Italia","(46.3144754, 11.0480288, 0.0)",46.3144754,11.0480288,0.0
381,nan,1870,"Nanno, Ville d'Anaunia, Comunità della Val di Non, Provincia di Trento, Trentino-Alto Adige/Südtirol, 38012, Italia","(46.3144754, 11.0480288, 0.0)",46.3144754,11.0480288,0.0
382,nan,1870,"Nanno, Ville d'Anaunia, Comunità della Val di Non, Provincia di Trento, Trentino-Alto Adige/Südtirol, 38012, Italia","(46.3144754, 11.0480288, 0.0)",46.3144754,11.0480288,0.0
383,nan,1870,"Nanno, Ville d'Anaunia, Comunità della Val di Non, Provincia di Trento, Trentino-Alto Adige/Südtirol, 38012, Italia","(46.3144754, 11.0480288, 0.0)",46.3144754,11.0480288,0.0
384,nan,1870,"Nanno, Ville d'Anaunia, Comunità della Val di Non, Provincia di Trento, Trentino-Alto Adige/Südtirol, 38012, Italia","(46.3144754, 11.0480288, 0.0)",46.3144754,11.0480288,0.0
385,nan,1870,"Nanno, Ville d'Anaunia, Comunità della Val di Non, Provincia di Trento, Trentino-Alto Adige/Südtirol, 38012, Italia","(46.3144754, 11.0480288, 0.0)",46.3144754,11.0480288,0.0
386,"Bank street,New York,NY,United States",1850,"Bank Street, West Village, Manhattan, New York County, New York, 10014, United States","(40.736839, -74.003714, 0.0)",40.736839,-74.003714,0.0
387,"Clinton place,New York,NY,United States",1870,"Clinton Place, Biltmore Shores, Town of Oyster Bay, Nassau County, New York, 11783, United States","(40.6552648, -73.4765537, 0.0)",40.6552648,-73.4765537,0.0
388,"Nassau street,New York,NY,United States",1870,"Nassau Street, Financial District, Manhattan, New York County, New York, 10038, United States","(40.7116446, -74.0059076, 0.0)",40.7116446,-74.0059076,0.0
389,"Lexington ave.,New York,NY,United States",1860,"Lexington Avenue, Midtown East, Manhattan, New York County, New York, 10037, United States","(40.753367, -73.974648, 0.0)",40.753367,-73.974648,0.0
390,"Broadway,New York,NY,United States",1840,"Broadway, NoMad, Manhattan, New York County, New York, 10019, United States","(40.7461241, -73.9885976, 0.0)",40.7461241,-73.9885976,0.0
391,"East 64th street,New York,NY,United States",1860,"East 64th Street, Bergen Beach, Brooklyn, Kings County, New York, 11234, United States","(40.609022, -73.909737, 0.0)",40.609022,-73.909737,0.0
392,"East 36th street,New York,NY,United States",1870,"East 36th Street, Brooklyn, Kings County, New York, 11234, United States","(40.6113767, -73.9331656, 0.0)",40.6113767,-73.9331656,0.0
393,nan,1840,"Nanno, Ville d'Anaunia, Comunità della Val di Non, Provincia di Trento, Trentino-Alto Adige/Südtirol, 38012, Italia","(46.3144754, 11.0480288, 0.0)",46.3144754,11.0480288,0.0
394,"West 51st street,New York,NY,United States",1860,"West 51st Street, Hell's Kitchen, Manhattan, New York County, New York, 10019, United States","(40.7641756, -73.9886395, 0.0)",40.7641756,-73.9886395,0.0
395,"East 56th street,New York,NY,United States",1870,"East 56th Street, Paerdegat, Brooklyn, Kings County, New York, 11234, United States","(40.6378629, -73.9230511, 0.0)",40.6378629,-73.9230511,0.0
396,"Newark avenue,Jersey City,NJ,United States",1860,"Newark Avenue, Jersey City, Hudson County, New Jersey, 07302:07306, United States","(40.7286569, -74.054797, 0.0)",40.7286569,-74.054797,0.0
397,nan,1860,"Nanno, Ville d'Anaunia, Comunità della Val di Non, Provincia di Trento, Trentino-Alto Adige/Südtirol, 38012, Italia","(46.3144754, 11.0480288, 0.0)",46.3144754,11.0480288,0.0
398,nan,1840,"Nanno, Ville d'Anaunia, Comunità della Val di Non, Provincia di Trento, Trentino-Alto Adige/Südtirol, 38012, Italia","(46.3144754, 11.0480288, 0.0)",46.3144754,11.0480288,0.0
399,"Court st.,Brooklyn,NY,United States",1860,"Court Street, Montague Street, Cobble Hill, Brooklyn, Kings County, New York, 11201, United States","(40.6941, -73.991777, 0.0)",40.6941,-73.991777,0.0
400,"West 12th street,New York,NY,United States",1860,"West 12th Street, West Village, Manhattan, New York County, New York, 10014, United States","(40.7376112, -74.0015555, 0.0)",40.7376112,-74.0015555,0.0
401,nan,1840,"Nanno, Ville d'Anaunia, Comunità della Val di Non, Provincia di Trento, Trentino-Alto Adige/Südtirol, 38012, Italia","(46.3144754, 11.0480288, 0.0)",46.3144754,11.0480288,0.0
403,nan,1860,"Nanno, Ville d'Anaunia, Comunità della Val di Non, Provincia di Trento, Trentino-Alto Adige/Südtirol, 38012, Italia","(46.3144754, 11.0480288, 0.0)",46.3144754,11.0480288,0.0
404,"Howard street,New York,NY,United States",1860,"Howard Street, Mont Pleasant, Schenectady, Schenectady County, New York, 12303, United States","(42.798892, -73.9457995, 0.0)",42.798892,-73.9457995,0.0
406,"Madison ave,New York,NY,United States",1860,"Madison Avenue, Upper East Side, Manhattan, New York County, New York, 10037, United States","(40.7776964, -73.9611218, 0.0)",40.7776964,-73.9611218,0.0
407,"Maiden Lane,New York ,NY,United States",1870,"Maiden Lane, Financial District, Manhattan, New York County, New York, 10038, United States","(40.7057643, -74.0054379, 0.0)",40.7057643,-74.0054379,0.0
408,"East 13th street,New York,NY,United States",1880,"East 13th Street, Brooklyn, Kings County, New York, 11230, United States","(40.6274884, -73.9637227, 0.0)",40.6274884,-73.9637227,0.0
409,"East 81st street,New York,NY,United States",1860,"East 81st Street, Brooklyn, Kings County, New York, 11236, United States","(40.6410349, -73.9181361, 0.0)",40.6410349,-73.9181361,0.0
410,"Hudson street,New York,NY,United States",1870,"Hudson Street, Tribeca, Manhattan, New York County, New York, 10014, United States","(40.7198958, -74.0085939, 0.0)",40.7198958,-74.0085939,0.0
412,"East 69th street,New York ,NY,United States",1870,"East 69th Street, Lenox Hill, Manhattan, New York County, New York, 10021, United States","(40.7658106, -73.9572775, 0.0)",40.7658106,-73.9572775,0.0
413,"West 18th st.,New York,NY,United States",1870,"West 18th Street, Chelsea, Manhattan, New York County, New York, 10011, United States","(40.7409971, -73.9977219, 0.0)",40.7409971,-73.9977219,0.0
414,nan,1870,"Nanno, Ville d'Anaunia, Comunità della Val di Non, Provincia di Trento, Trentino-Alto Adige/Südtirol, 38012, Italia","(46.3144754, 11.0480288, 0.0)",46.3144754,11.0480288,0.0
415,nan,1860,"Nanno, Ville d'Anaunia, Comunità della Val di Non, Provincia di Trento, Trentino-Alto Adige/Südtirol, 38012, Italia","(46.3144754, 11.0480288, 0.0)",46.3144754,11.0480288,0.0
416,"Barclay street,New York,NY,United States",1850,"Barclay Street, Saugerties, Town of Saugerties, Ulster County, New York, 12477, United States","(42.066649, -73.945426, 0.0)",42.066649,-73.945426,0.0
417,"Greene,Brooklyn,NY,United States",1850,"Fort Greene, Brooklyn, Kings County, New York, 11227, United States","(40.6907711, -73.9766245, 0.0)",40.6907711,-73.9766245,0.0
419,"East 57th street,New York,NY,United States",1850,"East 57th Street, Midtown East, Manhattan, New York County, New York, 10022, United States","(40.7583569, -73.9630276, 0.0)",40.7583569,-73.9630276,0.0
420,"East 14th street,New York,NY,United States",1850,"East 14th Street, Stuy Town, Manhattan, New York County, New York, 10009:10010, United States","(40.7294404, -73.9780305, 0.0)",40.7294404,-73.9780305,0.0
421,"West 36th street,New York,NY,United States",1840,"West 36th Street, Coney Island, Brooklyn, Kings County, New York, 11224, United States","(40.5724847, -74.0013023, 0.0)",40.5724847,-74.0013023,0.0
422,nan,1860,"Nanno, Ville d'Anaunia, Comunità della Val di Non, Provincia di Trento, Trentino-Alto Adige/Südtirol, 38012, Italia","(46.3144754, 11.0480288, 0.0)",46.3144754,11.0480288,0.0
423,nan,1860,"Nanno, Ville d'Anaunia, Comunità della Val di Non, Provincia di Trento, Trentino-Alto Adige/Südtirol, 38012, Italia","(46.3144754, 11.0480288, 0.0)",46.3144754,11.0480288,0.0
424,"West 13th street,New York,NY,United States",1840,"West 13th Street, Gravesend, Brooklyn, Kings County, New York, 11223, United States","(40.5944547, -73.9838152, 0.0)",40.5944547,-73.9838152,0.0
425,"Bowery,New York,NY,United States",1870,"Bowery, Chinatown, Manhattan, New York County, New York, 10012, United States","(40.7150269, -73.9967552, 0.0)",40.7150269,-73.9967552,0.0
426,"Macdougal st.,New York,NY,United States",1860,"MacDougal Street, Greenwich Village, Manhattan Community Board 2, Manhattan, New York County, New York, 10012, United States","(40.7299682, -74.0005132, 0.0)",40.7299682,-74.0005132,0.0
427,nan,1860,"Nanno, Ville d'Anaunia, Comunità della Val di Non, Provincia di Trento, Trentino-Alto Adige/Südtirol, 38012, Italia","(46.3144754, 11.0480288, 0.0)",46.3144754,11.0480288,0.0
428,nan,1840,"Nanno, Ville d'Anaunia, Comunità della Val di Non, Provincia di Trento, Trentino-Alto Adige/Südtirol, 38012, Italia","(46.3144754, 11.0480288, 0.0)",46.3144754,11.0480288,0.0
429,nan,1840,"Nanno, Ville d'Anaunia, Comunità della Val di Non, Provincia di Trento, Trentino-Alto Adige/Südtirol, 38012, Italia","(46.3144754, 11.0480288, 0.0)",46.3144754,11.0480288,0.0
430,"White street,New York,NY,United States",1860,"White Street, Plattsburgh, Clinton County, New York, 12901, United States","(44.690657, -73.455768, 0.0)",44.690657,-73.455768,0.0
431,"East 34th street,New York,NY,United States",1870,"East 34th Street, Manhattan Community Board 6, Manhattan, New York County, New York, 10016, United States","(40.7445155, -73.9752881, 0.0)",40.7445155,-73.9752881,0.0
432,"Warren street,New York,NY,United States",1860,"Warren Street, Hudson Falls, Kingsbury, Washington County, New York, 12839, United States","(43.313464, -73.59624, 0.0)",43.313464,-73.59624,0.0
433,nan,1870,"Nanno, Ville d'Anaunia, Comunità della Val di Non, Provincia di Trento, Trentino-Alto Adige/Südtirol, 38012, Italia","(46.3144754, 11.0480288, 0.0)",46.3144754,11.0480288,0.0
434,"Comptroller's Office,New York,NY,United States",1840,"New York State Comptroller's Office, 110, State Street, Downtown, Albany, Albany County, New York, 12207-2826, United States","(42.64967985, -73.75410557791605, 0.0)",42.64967985,-73.75410557791605,0.0
435,"East 13th street,New York,NY,United States",1860,"East 13th Street, Brooklyn, Kings County, New York, 11230, United States","(40.6274884, -73.9637227, 0.0)",40.6274884,-73.9637227,0.0
436,nan,1840,"Nanno, Ville d'Anaunia, Comunità della Val di Non, Provincia di Trento, Trentino-Alto Adige/Südtirol, 38012, Italia","(46.3144754, 11.0480288, 0.0)",46.3144754,11.0480288,0.0
437,"Dey street,New York,NY,United States",1860,"Dey Street, Westfield World Trade Center, Manhattan, New York County, New York, 10008, United States","(40.7110079, -74.0107608, 0.0)",40.7110079,-74.0107608,0.0
438,"Broadway,New York,NY,United States",1860,"Broadway, NoMad, Manhattan, New York County, New York, 10019, United States","(40.7461241, -73.9885976, 0.0)",40.7461241,-73.9885976,0.0
439,"East 78th street,New York,NY,United States",1870,"East 78th Street, Paerdegat, Brooklyn, Kings County, New York, 11236, United States","(40.6340741, -73.9142309, 0.0)",40.6340741,-73.9142309,0.0
440,"Broadway,New York,NY,United States",1840,"Broadway, NoMad, Manhattan, New York County, New York, 10019, United States","(40.7461241, -73.9885976, 0.0)",40.7461241,-73.9885976,0.0
441,"Jersey City Heights,Jersey City,NJ,United States",1860,"Jersey City Heights Seventh-Day Adventist Church, Congress Street, Jersey City, Hudson County, New Jersey, 07307, United States","(40.7518068, -74.04744854337414, 0.0)",40.7518068,-74.04744854337414,0.0
442,"Greene,Brooklyn,NY,United States",1850,"Fort Greene, Brooklyn, Kings County, New York, 11227, United States","(40.6907711, -73.9766245, 0.0)",40.6907711,-73.9766245,0.0
443,nan,1860,"Nanno, Ville d'Anaunia, Comunità della Val di Non, Provincia di Trento, Trentino-Alto Adige/Südtirol, 38012, Italia","(46.3144754, 11.0480288, 0.0)",46.3144754,11.0480288,0.0
444,"Lafayette place,New York,NY,United States",1850,"Lafayette Place, Biltmore Shores, Town of Oyster Bay, Nassau County, New York, 11758, United States","(40.658032, -73.473237, 0.0)",40.658032,-73.473237,0.0
445,"East 57th street,New York,NY,United States",1870,"East 57th Street, Midtown East, Manhattan, New York County, New York, 10022, United States","(40.7583569, -73.9630276, 0.0)",40.7583569,-73.9630276,0.0
446,"Bowery,New York,NY,United States",1850,"Bowery, Chinatown, Manhattan, New York County, New York, 10012, United States","(40.7150269, -73.9967552, 0.0)",40.7150269,-73.9967552,0.0
447,"East 81st street,New York,NY,United States",1870,"East 81st Street, Brooklyn, Kings County, New York, 11236, United States","(40.6410349, -73.9181361, 0.0)",40.6410349,-73.9181361,0.0
448,"East 65th street,New York,NY,United States",1840,"East 65th Street, Lenox Hill, Manhattan, New York County, New York, 10021, United States","(40.7647616, -73.9625472, 0.0)",40.7647616,-73.9625472,0.0
449,"West 45th street,New York,NY,United States",1860,"West 45th Street, Hell's Kitchen, Manhattan, New York County, New York, 10036, United States","(40.7627398, -73.99689, 0.0)",40.7627398,-73.99689,0.0
450,nan,1850,"Nanno, Ville d'Anaunia, Comunità della Val di Non, Provincia di Trento, Trentino-Alto Adige/Südtirol, 38012, Italia","(46.3144754, 11.0480288, 0.0)",46.3144754,11.0480288,0.0
451,"East 75th street,New York,NY,United States",1870,"East 75th Street, Manhattan Community Board 8, Manhattan, New York County, New York, 10021, United States","(40.7708183, -73.9570675, 0.0)",40.7708183,-73.9570675,0.0
452,"4th avenue,New York ,NY,United States",1850,"Park Avenue South, Rose Hill, Manhattan, New York County, New York, 10016, United States","(40.7433005, -73.9840243, 0.0)",40.7433005,-73.9840243,0.0
454,"West 10th street,New York,NY,United States",1850,"West 10th Street, West Village, Manhattan, New York County, New York, 10014, United States","(40.73376, -74.0061698, 0.0)",40.73376,-74.0061698,0.0
455,"Astoria,Long Island,NY,United States",1870,"Astoria Provisions, 12-23, Astoria Boulevard, Astoria, Queens, Queens County, New York, 11102, United States","(40.7722369, -73.9291489, 0.0)",40.7722369,-73.9291489,0.0
456,nan,1830,"Nanno, Ville d'Anaunia, Comunità della Val di Non, Provincia di Trento, Trentino-Alto Adige/Südtirol, 38012, Italia","(46.3144754, 11.0480288, 0.0)",46.3144754,11.0480288,0.0
457,"West 125th st. ,New York,NY,United States",1860,"West 125th Street, Manhattan Community Board 9, Manhattan, New York County, New York, 10027, United States","(40.8178078, -73.9602699, 0.0)",40.8178078,-73.9602699,0.0
458,nan,1860,"Nanno, Ville d'Anaunia, Comunità della Val di Non, Provincia di Trento, Trentino-Alto Adige/Südtirol, 38012, Italia","(46.3144754, 11.0480288, 0.0)",46.3144754,11.0480288,0.0
459,nan,1840,"Nanno, Ville d'Anaunia, Comunità della Val di Non, Provincia di Trento, Trentino-Alto Adige/Südtirol, 38012, Italia","(46.3144754, 11.0480288, 0.0)",46.3144754,11.0480288,0.0
460,"Mercer street,New York,NY,United States",1860,"Mercer Street, Greenwich Village, Manhattan Community Board 2, Manhattan, New York County, New York, 10012, United States","(40.7282565, -73.9955393, 0.0)",40.7282565,-73.9955393,0.0
461,"Nassau street,New York,NY,United States",1870,"Nassau Street, Financial District, Manhattan, New York County, New York, 10038, United States","(40.7116446, -74.0059076, 0.0)",40.7116446,-74.0059076,0.0
462,nan,1870,"Nanno, Ville d'Anaunia, Comunità della Val di Non, Provincia di Trento, Trentino-Alto Adige/Südtirol, 38012, Italia","(46.3144754, 11.0480288, 0.0)",46.3144754,11.0480288,0.0
463,"South 4th,Brooklyn,NY,United States",1870,"South 4th Street, Brooklyn, Kings County, New York, 11211, United States","(40.7128965, -73.9658638, 0.0)",40.7128965,-73.9658638,0.0
464,nan,1850,"Nanno, Ville d'Anaunia, Comunità della Val di Non, Provincia di Trento, Trentino-Alto Adige/Südtirol, 38012, Italia","(46.3144754, 11.0480288, 0.0)",46.3144754,11.0480288,0.0
465,"Leonard street,New York,NY,United States",1860,"Leonard Street, Lower Manhattan, Civic Center, Manhattan, New York County, New York, 10013, United States","(40.7169207, -74.004134, 0.0)",40.7169207,-74.004134,0.0
466,"Lafayette  ,Brooklyn,NY,United States",1860,"Lafayette Avenue, Fulton Street, Fort Greene, Brooklyn, Kings County, New York, 11207, United States","(40.6863074, -73.9744304, 0.0)",40.6863074,-73.9744304,0.0
467,nan,1860,"Nanno, Ville d'Anaunia, Comunità della Val di Non, Provincia di Trento, Trentino-Alto Adige/Südtirol, 38012, Italia","(46.3144754, 11.0480288, 0.0)",46.3144754,11.0480288,0.0
468,"West 34th street,New York,NY,United States",1850,"West 34th Street, Manhattan Community Board 4, Manhattan, New York County, New York, 10001, United States","(40.7569713, -74.0048008, 0.0)",40.7569713,-74.0048008,0.0
469,"West 36th street,New York,NY,United States",1860,"West 36th Street, Coney Island, Brooklyn, Kings County, New York, 11224, United States","(40.5724847, -74.0013023, 0.0)",40.5724847,-74.0013023,0.0
471,"West 33rd st. ,New York,NY,United States",1880,"West 33rd Street, Coney Island, Brooklyn, Kings County, New York, 11224, United States","(40.5763896, -73.9998726, 0.0)",40.5763896,-73.9998726,0.0
472,"???,New York,NY,United States",1870,"United States, 97-30, 57th Avenue, Queens, Queens County, New York, 11368, United States","(40.7372329, -73.86247702352559, 0.0)",40.7372329,-73.86247702352559,0.0
473,"East 118th street,New York,NY,United States",1870,"East 118th Street, Manhattan Community Board 11, Manhattan, New York County, New York, 10035, United States","(40.7962897, -73.9320391, 0.0)",40.7962897,-73.9320391,0.0
474,nan,1880,"Nanno, Ville d'Anaunia, Comunità della Val di Non, Provincia di Trento, Trentino-Alto Adige/Südtirol, 38012, Italia","(46.3144754, 11.0480288, 0.0)",46.3144754,11.0480288,0.0
476,"East 67th street,New York,NY,United States",1870,"East 67th Street, Bergen Beach, Brooklyn, Kings County, New York, 11234, United States","(40.619409, -73.912071, 0.0)",40.619409,-73.912071,0.0
477,"East 77th street,New York,NY,United States",1870,"East 77th Street, Paerdegat, Brooklyn, Kings County, New York, 11236, United States","(40.6355895, -73.9171465, 0.0)",40.6355895,-73.9171465,0.0
478,"West 28th street,New York,NY,United States",1880,"West 28th Street, Coney Island, Brooklyn, Kings County, New York, 11224, United States","(40.5720188, -73.993632, 0.0)",40.5720188,-73.993632,0.0
480,"4th avenue,New York,NY,United States",1850,"Park Avenue South, Rose Hill, Manhattan, New York County, New York, 10016, United States","(40.7433005, -73.9840243, 0.0)",40.7433005,-73.9840243,0.0
481,"Varick st. ,New York,NY,United States",1850,"Varick Street, Hudson Square, Manhattan, New York County, New York, 10014-3621, United States","(40.7263219, -74.0057596, 0.0)",40.7263219,-74.0057596,0.0
482,"Broadway,New York,NY,United States",1850,"Broadway, NoMad, Manhattan, New York County, New York, 10019, United States","(40.7461241, -73.9885976, 0.0)",40.7461241,-73.9885976,0.0
483,"East 118th street,New York,NY,United States",1860,"East 118th Street, Manhattan Community Board 11, Manhattan, New York County, New York, 10035, United States","(40.7962897, -73.9320391, 0.0)",40.7962897,-73.9320391,0.0
484,nan,1860,"Nanno, Ville d'Anaunia, Comunità della Val di Non, Provincia di Trento, Trentino-Alto Adige/Südtirol, 38012, Italia","(46.3144754, 11.0480288, 0.0)",46.3144754,11.0480288,0.0
485,"7th avenue,New York,NY,United States",1840,"7th Avenue, Theater District, Manhattan, New York County, New York, 10019, United States","(40.7592102, -73.9846299, 0.0)",40.7592102,-73.9846299,0.0
486,nan,1840,"Nanno, Ville d'Anaunia, Comunità della Val di Non, Provincia di Trento, Trentino-Alto Adige/Südtirol, 38012, Italia","(46.3144754, 11.0480288, 0.0)",46.3144754,11.0480288,0.0
487,"Linden st.,Brooklyn,NY,United States",1840,"Linden Street, Bushwick, Brooklyn, Kings County, New York, 11237, United States","(40.6993038, -73.9136017, 0.0)",40.6993038,-73.9136017,0.0
488,"Broadway,New York,NY,United States",1860,"Broadway, NoMad, Manhattan, New York County, New York, 10019, United States","(40.7461241, -73.9885976, 0.0)",40.7461241,-73.9885976,0.0
489,"Wall street,New York,NY,United States",1840,"Wall Street, Financial District, Manhattan, New York County, New York, 10005, United States","(40.7060194, -74.0088308, 0.0)",40.7060194,-74.0088308,0.0
491,"Broadway,New York,NY,United States",1860,"Broadway, NoMad, Manhattan, New York County, New York, 10019, United States","(40.7461241, -73.9885976, 0.0)",40.7461241,-73.9885976,0.0
492,"East 59th street,New York,NY,United States",1870,"East 59th Street, Midtown East, Manhattan, New York County, New York, 10022, United States","(40.762968, -73.9699036, 0.0)",40.762968,-73.9699036,0.0
493,"Astor House,New York,NY,United States",1860,"Astor Place Opera House, Astor Place, NoHo, Manhattan, New York County, New York, 10003, United States","(40.7300861, -73.9921313, 0.0)",40.7300861,-73.9921313,0.0
494,"East 17th street,New York,NY,United States",1840,"East 17th Street, Sheepshead Bay, Brooklyn, Kings County, New York, 11235, United States","(40.5876317, -73.9523528, 0.0)",40.5876317,-73.9523528,0.0
496,"Lexington ave. ,New York,NY,United States",1870,"Lexington Avenue, Midtown East, Manhattan, New York County, New York, 10037, United States","(40.753367, -73.974648, 0.0)",40.753367,-73.974648,0.0
497,nan,1830,"Nanno, Ville d'Anaunia, Comunità della Val di Non, Provincia di Trento, Trentino-Alto Adige/Südtirol, 38012, Italia","(46.3144754, 11.0480288, 0.0)",46.3144754,11.0480288,0.0
498,"5th avenue,New York,NY,United States",1870,"5th Avenue, Manhattan Community Board 11, Manhattan, New York County, New York, 10035, United States","(40.7969895, -73.9491569, 0.0)",40.7969895,-73.9491569,0.0
499,"West 14th street,New York,NY,United States",1860,"West 14th Street, West Village, Manhattan, New York County, New York, 10011, United States","(40.7386055, -73.99981, 0.0)",40.7386055,-73.99981,0.0
